{"type":"FeatureCollection","name":"west-kalimantan-roi","crs":{"type":"name","properties":{"name":"urn:ogc:def:crs:OGC:1.3:CRS84"}},"features":[{"type":"Feature","properties":{"name":"West Kalimantan (Kalimantan Barat)","role":"analysis region of interest"},"geometry":{"type":"MultiPolygon","coordinates":[[[[110.20398,-3.06463],[110.20497,-3.06673],[110.20375,-3.06792],[110.20229,-3.06614],[110.20398,-3.06463]]],[[[110.22463,-3.04183],[110.22372,-3.03988],[110.22406,-3.03919],[110.22541,-3.04103],[110.22463,-3.04183]]],[[[110.30456,-3.00581],[110.30428,-3.00674],[110.30393,-3.00657],[110.30456,-3.00581]]],[[[110.30594,-2.99733],[110.3056,-2.99716],[110.30577,-2.99699],[110.30594,-2.99733]]],[[[110.30736,-2.99688],[110.30658,-2.99731],[110.307,-2.99658],[110.30736,-2.99688]]],[[[110.3071,-2.99508],[110.3066,-2.99612],[110.30674,-2.99485],[110.3071,-2.99508]]],[[[110.09288,-2.89548],[110.09158,-2.89445],[110.09207,-2.89351],[110.09324,-2.89404],[110.09288,-2.89548]]],[[[110.09286,-2.89294],[110.09169,-2.89227],[110.09178,-2.89101],[110.09247,-2.89138],[110.09286,-2.89294]]],[[[110.09186,-2.87702],[110.09232,-2.87954],[110.08958,-2.88185],[110.08919,-2.87755],[110.09186,-2.87702]]],[[[110.16981,-2.85291],[110.17446,-2.85509],[110.17959,-2.86297],[110.18953,-2.87069],[110.20171,-2.88367],[110.20007,-2.88896],[110.20061,-2.89335],[110.19568,-2.8969],[110.19196,-2.90255],[110.19207,-2.9126],[110.18478,-2.90844],[110.1799,-2.90949],[110.17199,-2.91498],[110.16642,-2.91201],[110.16129,-2.91411],[110.15969,-2.91164],[110.15977,-2.90674],[110.15578,-2.90528],[110.1565,-2.90247],[110.155,-2.90086],[110.15184,-2.89944],[110.14801,-2.90313],[110.14704,-2.89911],[110.14477,-2.89832],[110.14043,-2.9033],[110.1387,-2.90069],[110.13601,-2.9009],[110.13439,-2.89923],[110.13247,-2.89506],[110.13133,-2.89019],[110.13309,-2.88795],[110.14717,-2.88307],[110.15201,-2.88295],[110.15502,-2.87985],[110.16168,-2.86498],[110.15888,-2.85694],[110.16508,-2.85314],[110.16981,-2.85291]]],[[[110.07935,-2.84331],[110.07852,-2.84303],[110.07939,-2.84234],[110.07935,-2.84331]]],[[[110.08315,-2.82948],[110.08502,-2.83274],[110.08389,-2.83628],[110.08161,-2.83206],[110.08315,-2.82948]]],[[[110.11146,-2.67266],[110.11459,-2.6778],[110.11728,-2.67897],[110.12094,-2.67816],[110.12171,-2.68066],[110.11932,-2.68684],[110.12788,-2.69419],[110.12675,-2.69579],[110.12773,-2.70308],[110.12399,-2.69786],[110.11759,-2.70257],[110.11967,-2.70665],[110.1188,-2.70836],[110.12256,-2.71184],[110.1206,-2.71627],[110.11606,-2.71666],[110.11536,-2.71881],[110.11629,-2.72113],[110.12064,-2.72224],[110.12328,-2.72798],[110.1264,-2.72944],[110.12333,-2.73762],[110.12577,-2.74074],[110.12873,-2.74116],[110.12829,-2.74237],[110.12304,-2.7447],[110.12021,-2.75001],[110.11502,-2.75014],[110.11402,-2.75227],[110.10475,-2.7539],[110.10235,-2.75816],[110.09581,-2.75952],[110.09135,-2.75759],[110.08245,-2.76129],[110.07304,-2.75783],[110.06978,-2.75377],[110.06019,-2.75264],[110.05485,-2.7481],[110.04406,-2.74788],[110.04388,-2.74418],[110.05028,-2.74165],[110.05289,-2.74224],[110.06657,-2.73138],[110.07567,-2.70117],[110.08038,-2.69391],[110.08581,-2.69588],[110.08673,-2.69367],[110.09154,-2.69092],[110.09458,-2.68079],[110.0982,-2.67464],[110.1027,-2.67386],[110.10589,-2.67524],[110.11146,-2.67266]]],[[[110.1135,-2.67123],[110.11243,-2.67078],[110.11263,-2.66975],[110.11361,-2.66988],[110.1135,-2.67123]]],[[[110.11819,-2.66972],[110.12041,-2.67035],[110.12039,-2.67289],[110.11855,-2.67324],[110.11819,-2.66972]]],[[[110.0997,-2.67175],[110.09801,-2.67001],[110.09802,-2.66921],[110.09893,-2.66971],[110.0997,-2.67175]]],[[[110.12024,-2.66837],[110.11811,-2.66682],[110.11799,-2.66546],[110.11975,-2.66618],[110.12024,-2.66837]]],[[[110.12673,-2.62729],[110.12856,-2.62867],[110.12188,-2.63853],[110.12032,-2.63797],[110.11996,-2.63508],[110.11403,-2.6341],[110.11825,-2.63042],[110.12673,-2.62729]]],[[[110.15027,-2.63021],[110.15383,-2.63673],[110.15284,-2.63839],[110.15023,-2.6372],[110.15021,-2.63294],[110.14785,-2.63062],[110.14874,-2.62733],[110.15072,-2.62716],[110.15027,-2.63021]]],[[[110.1451,-2.62475],[110.14473,-2.62693],[110.14417,-2.6279],[110.14423,-2.62534],[110.1451,-2.62475]]],[[[110.06004,-2.37291],[110.06626,-2.37445],[110.06981,-2.37362],[110.07112,-2.3751],[110.07032,-2.37863],[110.05861,-2.37703],[110.06004,-2.37291]]],[[[110.0728,-2.3704],[110.07083,-2.37236],[110.07063,-2.36992],[110.0728,-2.3704]]],[[[109.99148,-2.25961],[109.98925,-2.25843],[109.98835,-2.2557],[109.98958,-2.25822],[109.99148,-2.25961]]],[[[109.9905,-2.25478],[109.98995,-2.25546],[109.98966,-2.25494],[109.9905,-2.25478]]],[[[110.08125,-2.1688],[110.08449,-2.17191],[110.0846,-2.17246],[110.08108,-2.17035],[110.08125,-2.1688]]],[[[110.08022,-2.16823],[110.0791,-2.17029],[110.07843,-2.16995],[110.07866,-2.16677],[110.08022,-2.16823]]],[[[109.91811,-1.82041],[109.91742,-1.82098],[109.91761,-1.82012],[109.91811,-1.82041]]],[[[109.91968,-1.81974],[109.9217,-1.82103],[109.92243,-1.82338],[109.91841,-1.82176],[109.91968,-1.81974]]],[[[109.92298,-1.81941],[109.92337,-1.82048],[109.92209,-1.81896],[109.92298,-1.81941]]],[[[109.93725,-1.77342],[109.93868,-1.77304],[109.93885,-1.77373],[109.93725,-1.77342]]],[[[109.93806,-1.7724],[109.93606,-1.77261],[109.93494,-1.77151],[109.93636,-1.77088],[109.93806,-1.7724]]],[[[109.93605,-1.76999],[109.93479,-1.77045],[109.93515,-1.76938],[109.93605,-1.76999]]],[[[109.92926,-1.76382],[109.93081,-1.76366],[109.93282,-1.76534],[109.92957,-1.76516],[109.92926,-1.76382]]],[[[109.92998,-1.7626],[109.93001,-1.76331],[109.92922,-1.76305],[109.92998,-1.7626]]],[[[109.33364,-1.73783],[109.33388,-1.74317],[109.333,-1.7412],[109.33364,-1.73783]]],[[[109.29682,-1.73002],[109.29575,-1.72903],[109.29656,-1.72664],[109.29743,-1.72772],[109.29682,-1.73002]]],[[[109.29727,-1.7136],[109.29394,-1.71529],[109.29339,-1.71511],[109.29562,-1.7133],[109.29727,-1.7136]]],[[[108.74493,-1.69993],[108.75413,-1.70184],[108.76788,-1.70033],[108.78045,-1.70256],[108.78441,-1.70399],[108.78694,-1.70907],[108.78298,-1.71309],[108.77704,-1.71388],[108.77317,-1.71649],[108.75173,-1.71646],[108.74303,-1.72012],[108.74174,-1.71891],[108.7403,-1.72114],[108.73687,-1.72067],[108.73003,-1.72538],[108.7194,-1.72682],[108.71075,-1.72416],[108.69992,-1.72397],[108.69543,-1.72106],[108.68067,-1.72218],[108.67789,-1.71984],[108.67864,-1.71776],[108.68267,-1.71781],[108.68543,-1.71153],[108.68066,-1.70604],[108.68491,-1.70328],[108.68877,-1.70381],[108.68847,-1.70617],[108.69279,-1.71079],[108.69921,-1.70631],[108.70039,-1.7092],[108.70383,-1.70479],[108.712,-1.70741],[108.71525,-1.70348],[108.71902,-1.70946],[108.72274,-1.7078],[108.72797,-1.70186],[108.74493,-1.69993]]],[[[109.09494,-1.70004],[109.09317,-1.69931],[109.09153,-1.69624],[109.09562,-1.69555],[109.09641,-1.69822],[109.09494,-1.70004]]],[[[109.11251,-1.69712],[109.11151,-1.69564],[109.11308,-1.69496],[109.11373,-1.69576],[109.11251,-1.69712]]],[[[108.76375,-1.62348],[108.76309,-1.62506],[108.76012,-1.62373],[108.76034,-1.62344],[108.76375,-1.62348]]],[[[108.78719,-1.61324],[108.78509,-1.61638],[108.78276,-1.61536],[108.78251,-1.61366],[108.78552,-1.61183],[108.78719,-1.61324]]],[[[109.1554,-1.60409],[109.15077,-1.60599],[109.14944,-1.60409],[109.15019,-1.60046],[109.15415,-1.59809],[109.1569,-1.59926],[109.1554,-1.60409]]],[[[109.19239,-1.59422],[109.19048,-1.59511],[109.18801,-1.59284],[109.19033,-1.5913],[109.19239,-1.59422]]],[[[109.20209,-1.58668],[109.20652,-1.58816],[109.20094,-1.58705],[109.20209,-1.58668]]],[[[108.76122,-1.58662],[108.76182,-1.58751],[108.76073,-1.5871],[108.76122,-1.58662]]],[[[108.75264,-1.58384],[108.75274,-1.58803],[108.74891,-1.59158],[108.74883,-1.58905],[108.75264,-1.58384]]],[[[108.78387,-1.58018],[108.78295,-1.57916],[108.78344,-1.57788],[108.78447,-1.57879],[108.78387,-1.58018]]],[[[109.15632,-1.57715],[109.15463,-1.57802],[109.15654,-1.57664],[109.15632,-1.57715]]],[[[108.77659,-1.57542],[108.77619,-1.58236],[108.77776,-1.58346],[108.7763,-1.58708],[108.7734,-1.58931],[108.76314,-1.5912],[108.76327,-1.58114],[108.76518,-1.57626],[108.77659,-1.57542]]],[[[109.1584,-1.57495],[109.15949,-1.57552],[109.1586,-1.57587],[109.1584,-1.57495]]],[[[108.78488,-1.57621],[108.78422,-1.57315],[108.78607,-1.57167],[108.78659,-1.57275],[108.78488,-1.57621]]],[[[108.73669,-1.56927],[108.74089,-1.57775],[108.73926,-1.57878],[108.73677,-1.57673],[108.73152,-1.57597],[108.7304,-1.57087],[108.73277,-1.56851],[108.73669,-1.56927]]],[[[108.78225,-1.56608],[108.7807,-1.5663],[108.7819,-1.56553],[108.78225,-1.56608]]],[[[108.78226,-1.55817],[108.78053,-1.5581],[108.78152,-1.55733],[108.78226,-1.55817]]],[[[108.76958,-1.55628],[108.77049,-1.55642],[108.77,-1.55717],[108.76958,-1.55628]]],[[[108.8077,-1.55862],[108.80595,-1.5595],[108.80563,-1.5621],[108.80333,-1.56041],[108.79602,-1.56005],[108.79657,-1.5581],[108.79995,-1.5592],[108.80575,-1.55596],[108.8077,-1.55862]]],[[[108.81104,-1.55449],[108.81075,-1.55489],[108.81075,-1.5546],[108.81104,-1.55449]]],[[[108.77196,-1.55387],[108.77733,-1.5543],[108.77822,-1.55731],[108.77168,-1.55798],[108.77196,-1.55387]]],[[[108.82569,-1.55334],[108.82699,-1.55605],[108.82537,-1.55735],[108.82455,-1.55456],[108.82569,-1.55334]]],[[[108.75178,-1.55393],[108.75159,-1.55249],[108.75212,-1.55214],[108.75255,-1.55325],[108.75178,-1.55393]]],[[[108.89751,-1.53476],[108.9011,-1.53704],[108.89939,-1.54062],[108.90167,-1.54513],[108.90717,-1.54219],[108.91044,-1.5429],[108.91491,-1.54714],[108.91485,-1.55305],[108.9194,-1.54936],[108.92608,-1.54835],[108.93956,-1.55182],[108.94234,-1.5601],[108.94881,-1.56497],[108.95295,-1.56615],[108.95291,-1.57372],[108.96085,-1.58164],[108.97124,-1.58795],[108.97206,-1.59363],[108.9828,-1.6017],[108.96647,-1.62874],[108.96074,-1.63046],[108.96148,-1.63435],[108.95752,-1.63942],[108.94612,-1.64176],[108.93711,-1.65383],[108.9208,-1.65985],[108.9105,-1.65794],[108.90617,-1.65992],[108.89719,-1.66054],[108.8911,-1.6685],[108.88678,-1.668],[108.88297,-1.66958],[108.88063,-1.67291],[108.87553,-1.6739],[108.87161,-1.67285],[108.86617,-1.67614],[108.86184,-1.6751],[108.85769,-1.67705],[108.85154,-1.6712],[108.84405,-1.67035],[108.8375,-1.66696],[108.83226,-1.66697],[108.82944,-1.66257],[108.83031,-1.66048],[108.82707,-1.64971],[108.81858,-1.64872],[108.82262,-1.64486],[108.82818,-1.64593],[108.83079,-1.64257],[108.8283,-1.63914],[108.82874,-1.63725],[108.83407,-1.63493],[108.83692,-1.63575],[108.83957,-1.63284],[108.84097,-1.62811],[108.83961,-1.62415],[108.83532,-1.6228],[108.83315,-1.6172],[108.83467,-1.61657],[108.83137,-1.61379],[108.82909,-1.60847],[108.83465,-1.6031],[108.83242,-1.59842],[108.83032,-1.59783],[108.83172,-1.59529],[108.83032,-1.59197],[108.82748,-1.58978],[108.83115,-1.58707],[108.83969,-1.58757],[108.84027,-1.5848],[108.8267,-1.58329],[108.82074,-1.5862],[108.82052,-1.58947],[108.81711,-1.59098],[108.79766,-1.59301],[108.79714,-1.59175],[108.80136,-1.59104],[108.80845,-1.58604],[108.80637,-1.58344],[108.80717,-1.58087],[108.80028,-1.5814],[108.79613,-1.5846],[108.78977,-1.58132],[108.79148,-1.57774],[108.79931,-1.57185],[108.81281,-1.56769],[108.82042,-1.57087],[108.82427,-1.56741],[108.82479,-1.56176],[108.83057,-1.56071],[108.8311,-1.55785],[108.82932,-1.55545],[108.83463,-1.55297],[108.83806,-1.55469],[108.84046,-1.55905],[108.8397,-1.56053],[108.83768,-1.55985],[108.8379,-1.56266],[108.84201,-1.56361],[108.84267,-1.5682],[108.84427,-1.56924],[108.8461,-1.56942],[108.85203,-1.56407],[108.85472,-1.56389],[108.8538,-1.57101],[108.85793,-1.5723],[108.86355,-1.5627],[108.86799,-1.55949],[108.87044,-1.56124],[108.87042,-1.56659],[108.87302,-1.56856],[108.87674,-1.56812],[108.88249,-1.5587],[108.89257,-1.54945],[108.89288,-1.54723],[108.89119,-1.5462],[108.89189,-1.53598],[108.89751,-1.53476]]],[[[109.33324,-1.52193],[109.33492,-1.52499],[109.33386,-1.52563],[109.32909,-1.52274],[109.33324,-1.52193]]],[[[109.3446,-1.51739],[109.34621,-1.51874],[109.34176,-1.52352],[109.33931,-1.51859],[109.3446,-1.51739]]],[[[109.35247,-1.49983],[109.35324,-1.50097],[109.35063,-1.50182],[109.35024,-1.50054],[109.35247,-1.49983]]],[[[109.38863,-1.49069],[109.38679,-1.49624],[109.38228,-1.50009],[109.38482,-1.50201],[109.38402,-1.50461],[109.38124,-1.50557],[109.37628,-1.50198],[109.38227,-1.49694],[109.38152,-1.49138],[109.38421,-1.48738],[109.38734,-1.48623],[109.38863,-1.49069]]],[[[109.37938,-1.47999],[109.37816,-1.48071],[109.37795,-1.48007],[109.37938,-1.47999]]],[[[109.38132,-1.47858],[109.38425,-1.47822],[109.38307,-1.47959],[109.38132,-1.47858]]],[[[109.04457,-1.47614],[109.04373,-1.48433],[109.05186,-1.47805],[109.05686,-1.48407],[109.05307,-1.50165],[109.0516,-1.4954],[109.04505,-1.49633],[109.04285,-1.49392],[109.04433,-1.48871],[109.04277,-1.48688],[109.0409,-1.48812],[109.03987,-1.48641],[109.03932,-1.47911],[109.04278,-1.47372],[109.04457,-1.47614]]],[[[110.04957,-1.4405],[110.04919,-1.4407],[110.04923,-1.44042],[110.04957,-1.4405]]],[[[110.02457,-1.43698],[110.02356,-1.43787],[110.02167,-1.43449],[110.02268,-1.43574],[110.02457,-1.43698]]],[[[110.04816,-1.43038],[110.04927,-1.43291],[110.05396,-1.4342],[110.04968,-1.43863],[110.04689,-1.43557],[110.04816,-1.43038]]],[[[110.01491,-1.42925],[110.01621,-1.42796],[110.01834,-1.43296],[110.02073,-1.43446],[110.01919,-1.43662],[110.01626,-1.43616],[110.01267,-1.42969],[110.01315,-1.42699],[110.01491,-1.42925]]],[[[110.00627,-1.42974],[110.00352,-1.4279],[110.00658,-1.42447],[110.00776,-1.42698],[110.00627,-1.42974]]],[[[109.22861,-1.41164],[109.22865,-1.41318],[109.22763,-1.41404],[109.2266,-1.41155],[109.22861,-1.41164]]],[[[109.21832,-1.40895],[109.22405,-1.41123],[109.22407,-1.41331],[109.21712,-1.41123],[109.21832,-1.40895]]],[[[109.88852,-1.36631],[109.88642,-1.36868],[109.88599,-1.36862],[109.88675,-1.36614],[109.88852,-1.36631]]],[[[109.90016,-1.34306],[109.9053,-1.34659],[109.89971,-1.35231],[109.89648,-1.3513],[109.90016,-1.34306]]],[[[109.11314,-1.34296],[109.11647,-1.34375],[109.11592,-1.34731],[109.11298,-1.34486],[109.11314,-1.34296]]],[[[110.03402,-1.32145],[110.0338,-1.32276],[110.03322,-1.32174],[110.03402,-1.32145]]],[[[109.11041,-1.31609],[109.10944,-1.3163],[109.10986,-1.31569],[109.11041,-1.31609]]],[[[110.02963,-1.31157],[110.02814,-1.31096],[110.02933,-1.30983],[110.02963,-1.31157]]],[[[110.01482,-1.30057],[110.01335,-1.30073],[110.01442,-1.29907],[110.01482,-1.30057]]],[[[109.31239,-1.28937],[109.31104,-1.28935],[109.31223,-1.28887],[109.31239,-1.28937]]],[[[108.88084,-1.28909],[108.87989,-1.28911],[108.88096,-1.28795],[108.88084,-1.28909]]],[[[109.13521,-1.28753],[109.1384,-1.29063],[109.13417,-1.29422],[109.13424,-1.29708],[109.13131,-1.29922],[109.13004,-1.30338],[109.12634,-1.30499],[109.12402,-1.31117],[109.11973,-1.31194],[109.11806,-1.31403],[109.11355,-1.31348],[109.11378,-1.30952],[109.11734,-1.30907],[109.11906,-1.30041],[109.12794,-1.29439],[109.13012,-1.29004],[109.13521,-1.28753]]],[[[109.14486,-1.28661],[109.15193,-1.29569],[109.15423,-1.29429],[109.15533,-1.29093],[109.16067,-1.29087],[109.16337,-1.29351],[109.161,-1.29675],[109.16112,-1.29918],[109.15831,-1.30167],[109.15444,-1.29972],[109.15295,-1.30054],[109.15203,-1.31198],[109.14272,-1.32573],[109.13777,-1.32809],[109.13617,-1.33078],[109.13685,-1.32533],[109.13537,-1.32329],[109.14018,-1.31591],[109.13903,-1.31187],[109.141,-1.28827],[109.14486,-1.28661]]],[[[108.90217,-1.28354],[108.90132,-1.28768],[108.89899,-1.2882],[108.8987,-1.28582],[108.90056,-1.28611],[108.90217,-1.28354]]],[[[108.89009,-1.28197],[108.89058,-1.28521],[108.88949,-1.28554],[108.89009,-1.28197]]],[[[109.96418,-1.28148],[109.96387,-1.28169],[109.96409,-1.28141],[109.96418,-1.28148]]],[[[109.13306,-1.27673],[109.13544,-1.28003],[109.13324,-1.2847],[109.12613,-1.28657],[109.12629,-1.282],[109.13306,-1.27673]]],[[[108.87091,-1.27348],[108.87008,-1.27336],[108.87101,-1.27309],[108.87091,-1.27348]]],[[[109.19209,-1.27246],[109.18747,-1.27555],[109.1855,-1.27319],[109.18687,-1.27127],[109.19023,-1.27281],[109.19173,-1.27001],[109.19209,-1.27246]]],[[[109.15804,-1.26623],[109.16241,-1.26632],[109.16965,-1.27112],[109.17843,-1.28074],[109.17956,-1.28356],[109.17874,-1.29226],[109.17555,-1.29603],[109.17238,-1.29631],[109.17242,-1.29197],[109.1703,-1.2894],[109.16788,-1.29109],[109.16404,-1.29106],[109.16208,-1.2883],[109.16162,-1.28335],[109.15754,-1.28224],[109.15641,-1.27815],[109.15294,-1.27614],[109.15316,-1.27055],[109.15804,-1.26623]]],[[[109.95082,-1.26641],[109.94928,-1.26964],[109.94831,-1.26653],[109.95082,-1.26641]]],[[[109.17135,-1.26569],[109.1701,-1.26509],[109.17078,-1.26372],[109.17175,-1.26414],[109.17135,-1.26569]]],[[[109.93813,-1.24918],[109.9374,-1.24982],[109.93722,-1.24938],[109.93813,-1.24918]]],[[[109.25433,-1.23536],[109.25299,-1.23728],[109.25244,-1.23679],[109.25433,-1.23536]]],[[[109.29806,-1.23487],[109.29614,-1.23687],[109.29621,-1.23474],[109.29806,-1.23487]]],[[[109.20802,-1.23561],[109.20768,-1.24293],[109.20464,-1.24431],[109.20356,-1.24146],[109.20027,-1.24216],[109.19993,-1.2375],[109.20415,-1.23557],[109.20527,-1.2323],[109.20802,-1.23561]]],[[[109.20358,-1.2309],[109.20231,-1.23188],[109.20297,-1.22999],[109.20358,-1.2309]]],[[[109.29766,-1.23061],[109.29598,-1.23086],[109.29541,-1.22803],[109.2975,-1.22811],[109.29766,-1.23061]]],[[[109.40335,-1.22295],[109.40243,-1.22331],[109.40273,-1.22241],[109.40335,-1.22295]]],[[[109.28265,-1.21351],[109.2823,-1.21336],[109.28251,-1.21326],[109.28265,-1.21351]]],[[[109.28518,-1.2125],[109.28256,-1.21322],[109.28219,-1.21047],[109.2834,-1.21018],[109.28518,-1.2125]]],[[[109.90605,-1.20471],[109.90518,-1.20468],[109.90588,-1.20412],[109.90605,-1.20471]]],[[[109.27681,-1.20634],[109.27485,-1.21141],[109.27164,-1.2089],[109.27303,-1.19952],[109.27681,-1.20634]]],[[[109.27672,-1.19798],[109.27657,-1.19811],[109.27655,-1.198],[109.27672,-1.19798]]],[[[109.26091,-1.18258],[109.26768,-1.19043],[109.26864,-1.20407],[109.27093,-1.20922],[109.26962,-1.21643],[109.26548,-1.21537],[109.26286,-1.22018],[109.25377,-1.22399],[109.25354,-1.22995],[109.25096,-1.23561],[109.24539,-1.23926],[109.24295,-1.2435],[109.23246,-1.24392],[109.22528,-1.24078],[109.22372,-1.24241],[109.22222,-1.23878],[109.21707,-1.23639],[109.2187,-1.23038],[109.22328,-1.22354],[109.22625,-1.22284],[109.22771,-1.21995],[109.22828,-1.2139],[109.22653,-1.21227],[109.22413,-1.21263],[109.227,-1.20093],[109.23491,-1.20071],[109.23479,-1.19833],[109.23677,-1.19718],[109.24565,-1.1983],[109.24788,-1.19306],[109.25697,-1.18622],[109.25891,-1.18264],[109.26091,-1.18258]]],[[[109.81615,-1.09121],[109.81699,-1.09126],[109.81676,-1.09169],[109.81615,-1.09121]]],[[[109.30045,-1.05594],[109.29975,-1.05689],[109.29872,-1.05642],[109.29892,-1.05601],[109.30045,-1.05594]]],[[[109.45411,-1.02052],[109.45405,-1.02171],[109.45243,-1.02212],[109.45411,-1.02052]]],[[[109.75772,-1.0127],[109.75703,-1.01349],[109.75733,-1.01275],[109.75772,-1.0127]]],[[[109.49809,-0.97903],[109.49936,-0.97802],[109.50125,-0.98089],[109.51064,-0.98565],[109.5147,-0.98965],[109.51836,-0.98959],[109.52835,-0.99851],[109.53158,-0.99698],[109.53519,-1.00023],[109.55185,-1.0033],[109.56599,-0.99931],[109.57066,-0.99524],[109.57754,-0.99336],[109.59039,-0.98349],[109.59635,-0.98116],[109.61662,-0.98654],[109.63682,-0.9864],[109.64009,-0.9918],[109.64067,-1.00121],[109.64331,-1.00733],[109.64275,-1.0124],[109.6527,-1.01283],[109.66294,-1.01093],[109.67443,-1.02116],[109.6822,-1.02039],[109.68746,-1.01801],[109.69674,-1.00687],[109.701,-0.99317],[109.71485,-0.98951],[109.71943,-0.98971],[109.72705,-0.99817],[109.73766,-1.00239],[109.76084,-1.0047],[109.76231,-1.00813],[109.7609,-1.0111],[109.7562,-1.01307],[109.75568,-1.0223],[109.75924,-1.03564],[109.7594,-1.04646],[109.77002,-1.08008],[109.76572,-1.0909],[109.76563,-1.10995],[109.76824,-1.12075],[109.77744,-1.13015],[109.78006,-1.14407],[109.77715,-1.14825],[109.76925,-1.14985],[109.75542,-1.15725],[109.7481,-1.1632],[109.74586,-1.16285],[109.74568,-1.16447],[109.73772,-1.16911],[109.7361,-1.16861],[109.7348,-1.17082],[109.72664,-1.17459],[109.72514,-1.17395],[109.71943,-1.17786],[109.71402,-1.17799],[109.71291,-1.18089],[109.68945,-1.19292],[109.68382,-1.19909],[109.68252,-1.20365],[109.68371,-1.2109],[109.68891,-1.21555],[109.68663,-1.21774],[109.68307,-1.21706],[109.68387,-1.21467],[109.68172,-1.21438],[109.66442,-1.21676],[109.64242,-1.22446],[109.5899,-1.24687],[109.58838,-1.24902],[109.54222,-1.27265],[109.51214,-1.29583],[109.50254,-1.3086],[109.49654,-1.30954],[109.47662,-1.30795],[109.45667,-1.30366],[109.42696,-1.29224],[109.40531,-1.27986],[109.39319,-1.27061],[109.38472,-1.26308],[109.37958,-1.25481],[109.38288,-1.25029],[109.38741,-1.24809],[109.40013,-1.24751],[109.40566,-1.24536],[109.41696,-1.22476],[109.43139,-1.18562],[109.4361,-1.15947],[109.43338,-1.15614],[109.43694,-1.15332],[109.4461,-1.10999],[109.44869,-1.10714],[109.45491,-1.06243],[109.45551,-1.04538],[109.45494,-1.04117],[109.45112,-1.03717],[109.45077,-1.03147],[109.45301,-1.02778],[109.45644,-1.02681],[109.45724,-1.02307],[109.45478,-1.01834],[109.46109,-1.01688],[109.46158,-1.01026],[109.45935,-1.00923],[109.46019,-1.0075],[109.45787,-1.00389],[109.4613,-1.00107],[109.46833,-1.00389],[109.47246,-1.00284],[109.48005,-0.99239],[109.48826,-0.97327],[109.49226,-0.9739],[109.49809,-0.97903]]],[[[109.38494,-0.9636],[109.38451,-0.96251],[109.385,-0.9615],[109.38543,-0.96257],[109.38494,-0.9636]]],[[[109.38795,-0.95978],[109.38758,-0.96102],[109.38718,-0.96022],[109.38795,-0.95978]]],[[[109.24582,-0.94778],[109.24587,-0.94791],[109.24572,-0.94769],[109.24582,-0.94778]]],[[[109.35801,-0.94588],[109.36121,-0.94763],[109.35829,-0.95023],[109.35801,-0.94588]]],[[[109.25196,-0.94163],[109.2541,-0.94481],[109.25278,-0.94683],[109.25019,-0.94682],[109.25196,-0.94163]]],[[[109.25814,-0.94023],[109.26019,-0.94202],[109.25933,-0.94383],[109.25692,-0.94281],[109.25814,-0.94023]]],[[[109.56052,-0.74571],[109.55981,-0.74638],[109.55978,-0.74523],[109.56052,-0.74571]]],[[[109.57467,-0.73326],[109.59343,-0.7429],[109.59874,-0.74829],[109.60788,-0.74862],[109.6133,-0.75213],[109.62227,-0.75007],[109.62635,-0.75155],[109.63189,-0.76164],[109.63278,-0.78283],[109.63653,-0.78734],[109.63509,-0.79163],[109.62897,-0.79568],[109.62389,-0.79491],[109.61802,-0.78434],[109.60374,-0.77898],[109.60005,-0.76854],[109.59387,-0.76656],[109.58297,-0.76742],[109.56676,-0.75778],[109.56706,-0.75408],[109.57328,-0.74748],[109.57467,-0.73326]]],[[[109.69084,-0.71546],[109.69543,-0.71697],[109.69382,-0.72379],[109.69131,-0.72662],[109.68968,-0.72455],[109.68447,-0.72689],[109.67665,-0.73684],[109.6699,-0.73882],[109.67569,-0.74406],[109.67131,-0.74457],[109.66994,-0.74615],[109.6695,-0.75274],[109.6592,-0.74828],[109.63935,-0.75],[109.62437,-0.74706],[109.61466,-0.74927],[109.60779,-0.74532],[109.60889,-0.74053],[109.60585,-0.73463],[109.60675,-0.73375],[109.61587,-0.73258],[109.62363,-0.7285],[109.62947,-0.7338],[109.6413,-0.73265],[109.64437,-0.73019],[109.64758,-0.71929],[109.6632,-0.72569],[109.66983,-0.71571],[109.67686,-0.71863],[109.69084,-0.71546]]],[[[109.57146,-0.73189],[109.5709,-0.73813],[109.56765,-0.74382],[109.56482,-0.74222],[109.55777,-0.73307],[109.55111,-0.7325],[109.55367,-0.72773],[109.56068,-0.72286],[109.56552,-0.71455],[109.56869,-0.7123],[109.57547,-0.71779],[109.57721,-0.72468],[109.577,-0.72687],[109.57146,-0.73189]]],[[[109.57556,-0.71084],[109.57966,-0.7191],[109.58964,-0.71975],[109.59095,-0.71649],[109.59321,-0.71556],[109.60658,-0.72626],[109.60375,-0.73219],[109.60633,-0.74153],[109.60543,-0.74418],[109.59917,-0.74374],[109.593,-0.73834],[109.57777,-0.72942],[109.57693,-0.71888],[109.57061,-0.71198],[109.57556,-0.71084]]],[[[109.65713,-0.69975],[109.67096,-0.70207],[109.67999,-0.70215],[109.68386,-0.70559],[109.68785,-0.70675],[109.68759,-0.70949],[109.68835,-0.7127],[109.68674,-0.71451],[109.6784,-0.71675],[109.66928,-0.71486],[109.66336,-0.72457],[109.64748,-0.71729],[109.64152,-0.73071],[109.63401,-0.73002],[109.62978,-0.73211],[109.62654,-0.72691],[109.60864,-0.73016],[109.60691,-0.72491],[109.59498,-0.71485],[109.5903,-0.71521],[109.58648,-0.71886],[109.58006,-0.71794],[109.57868,-0.71646],[109.57793,-0.70987],[109.58549,-0.7073],[109.59688,-0.70984],[109.60037,-0.70874],[109.60279,-0.70451],[109.61003,-0.7046],[109.61613,-0.70253],[109.62192,-0.70541],[109.63232,-0.70552],[109.64695,-0.70357],[109.65713,-0.69975]]],[[[109.52276,-0.69878],[109.53667,-0.70451],[109.54931,-0.70643],[109.55919,-0.7161],[109.55571,-0.72069],[109.54822,-0.72489],[109.5417,-0.73147],[109.52647,-0.72717],[109.4686,-0.73193],[109.45991,-0.72995],[109.4543,-0.72675],[109.44469,-0.70839],[109.44772,-0.70886],[109.45722,-0.71997],[109.46209,-0.72093],[109.46936,-0.71693],[109.48314,-0.71745],[109.48528,-0.71385],[109.48275,-0.70751],[109.48441,-0.7064],[109.49132,-0.70744],[109.49211,-0.70629],[109.49194,-0.69971],[109.49613,-0.70313],[109.49763,-0.70269],[109.49686,-0.70012],[109.49856,-0.69987],[109.51328,-0.70168],[109.52276,-0.69878]]],[[[109.48338,-0.6835],[109.49755,-0.68859],[109.49777,-0.69432],[109.49384,-0.69558],[109.49045,-0.69388],[109.48334,-0.68705],[109.48338,-0.6835]]],[[[109.6661,-0.68271],[109.66909,-0.69017],[109.67443,-0.69461],[109.67381,-0.69738],[109.66481,-0.69912],[109.65523,-0.69848],[109.64749,-0.70197],[109.6314,-0.70388],[109.6217,-0.70361],[109.61566,-0.70103],[109.60294,-0.70205],[109.59894,-0.70397],[109.59582,-0.70795],[109.59121,-0.70533],[109.5861,-0.70516],[109.57802,-0.70747],[109.569,-0.70786],[109.56237,-0.71225],[109.55196,-0.70716],[109.57378,-0.69211],[109.58323,-0.69206],[109.59784,-0.69528],[109.60761,-0.68674],[109.61404,-0.68445],[109.61645,-0.68566],[109.61762,-0.6907],[109.63236,-0.6902],[109.64024,-0.68537],[109.64862,-0.68363],[109.65122,-0.67721],[109.65623,-0.67181],[109.65942,-0.68001],[109.6661,-0.68271]]],[[[109.44776,-0.67164],[109.45278,-0.67159],[109.45773,-0.67707],[109.46755,-0.68137],[109.47102,-0.68922],[109.47955,-0.68959],[109.49474,-0.69941],[109.49688,-0.70201],[109.49563,-0.7025],[109.49221,-0.69912],[109.49099,-0.69978],[109.49077,-0.70701],[109.48268,-0.70619],[109.48204,-0.70809],[109.48398,-0.71492],[109.483,-0.71656],[109.46883,-0.7157],[109.4586,-0.71902],[109.45288,-0.71064],[109.45223,-0.70792],[109.45491,-0.70646],[109.45469,-0.70515],[109.44359,-0.69666],[109.4365,-0.69578],[109.42495,-0.68158],[109.41194,-0.67446],[109.4203,-0.66936],[109.43578,-0.67638],[109.43969,-0.67375],[109.44049,-0.66839],[109.44776,-0.67164]]],[[[109.24872,-0.66119],[109.26521,-0.66547],[109.28617,-0.69029],[109.30641,-0.70237],[109.3377,-0.71056],[109.35473,-0.71305],[109.35623,-0.71446],[109.36865,-0.71463],[109.3766,-0.71004],[109.3936,-0.70718],[109.40444,-0.71184],[109.42299,-0.72435],[109.44973,-0.74697],[109.46662,-0.755],[109.47232,-0.75425],[109.47779,-0.751],[109.4884,-0.74993],[109.50443,-0.74533],[109.50348,-0.74194],[109.50935,-0.73941],[109.53475,-0.73842],[109.54125,-0.74572],[109.54618,-0.7475],[109.54982,-0.74648],[109.55282,-0.7435],[109.55816,-0.74827],[109.55719,-0.75719],[109.56034,-0.7634],[109.5708,-0.76737],[109.58061,-0.77341],[109.59405,-0.77373],[109.5989,-0.78314],[109.60318,-0.7861],[109.61438,-0.78926],[109.61784,-0.79674],[109.62233,-0.80025],[109.63069,-0.80335],[109.64132,-0.80391],[109.65165,-0.80919],[109.65949,-0.81118],[109.66166,-0.81852],[109.66474,-0.82293],[109.6761,-0.83211],[109.68219,-0.83324],[109.69329,-0.82787],[109.71043,-0.83204],[109.71281,-0.8346],[109.71806,-0.85115],[109.71308,-0.86338],[109.71546,-0.87045],[109.72109,-0.87387],[109.72616,-0.87405],[109.73681,-0.86353],[109.73945,-0.86273],[109.7452,-0.86625],[109.74819,-0.87249],[109.74768,-0.87393],[109.73865,-0.87713],[109.73579,-0.88245],[109.73691,-0.88733],[109.74476,-0.89609],[109.74564,-0.89993],[109.72734,-0.90598],[109.72067,-0.91406],[109.7204,-0.94157],[109.72275,-0.96599],[109.72112,-0.97412],[109.69574,-0.98929],[109.68923,-0.99898],[109.68416,-1.01307],[109.68171,-1.01411],[109.67951,-1.00978],[109.67205,-1.00508],[109.66581,-1.00234],[109.65945,-1.00251],[109.64916,-0.99893],[109.64368,-0.98268],[109.63907,-0.97659],[109.6286,-0.97322],[109.62136,-0.97852],[109.61258,-0.97243],[109.60906,-0.96541],[109.60986,-0.95389],[109.60861,-0.94404],[109.60019,-0.93427],[109.59767,-0.92019],[109.59345,-0.90845],[109.58384,-0.8984],[109.57983,-0.89749],[109.57467,-0.89915],[109.57099,-0.90281],[109.56961,-0.89989],[109.56735,-0.90063],[109.56504,-0.89819],[109.56306,-0.89853],[109.5585,-0.88929],[109.55225,-0.88493],[109.54404,-0.88307],[109.53658,-0.88558],[109.52285,-0.87778],[109.51957,-0.8788],[109.50492,-0.87449],[109.49918,-0.87444],[109.49748,-0.87607],[109.4933,-0.87293],[109.4855,-0.87239],[109.47848,-0.86882],[109.45554,-0.86554],[109.44978,-0.86162],[109.43957,-0.85816],[109.43811,-0.85301],[109.42877,-0.85641],[109.42737,-0.85943],[109.42082,-0.86455],[109.41973,-0.86355],[109.41475,-0.86949],[109.42139,-0.87555],[109.42583,-0.8889],[109.4325,-0.89654],[109.4274,-0.89928],[109.4274,-0.9027],[109.42488,-0.90347],[109.42483,-0.90615],[109.41841,-0.917],[109.40951,-0.92516],[109.406,-0.93257],[109.39691,-0.93281],[109.37323,-0.9265],[109.35694,-0.91877],[109.34173,-0.9208],[109.32997,-0.91904],[109.30928,-0.90789],[109.28461,-0.88589],[109.25608,-0.8528],[109.25622,-0.85029],[109.25218,-0.84638],[109.24441,-0.83041],[109.24016,-0.81683],[109.23686,-0.79526],[109.23841,-0.79261],[109.24277,-0.74122],[109.24125,-0.69354],[109.24555,-0.66491],[109.24872,-0.66119]]],[[[109.37,-0.65028],[109.38771,-0.65867],[109.40549,-0.67468],[109.37984,-0.67262],[109.36948,-0.67611],[109.36496,-0.67551],[109.36011,-0.67293],[109.35273,-0.66369],[109.34928,-0.65602],[109.3496,-0.6526],[109.35153,-0.65189],[109.35437,-0.65552],[109.35996,-0.65689],[109.37,-0.65028]]],[[[109.45238,-0.63192],[109.45569,-0.63694],[109.46023,-0.63951],[109.46642,-0.6397],[109.4757,-0.64667],[109.4789,-0.65126],[109.48001,-0.65633],[109.48619,-0.66356],[109.49071,-0.66481],[109.49474,-0.66397],[109.49474,-0.66703],[109.49161,-0.66939],[109.49085,-0.67349],[109.48508,-0.6728],[109.4814,-0.66724],[109.47206,-0.66891],[109.45767,-0.65888],[109.42738,-0.64255],[109.42836,-0.63975],[109.4268,-0.63777],[109.43184,-0.63425],[109.45238,-0.63192]]],[[[109.48296,-0.62847],[109.49246,-0.62598],[109.50149,-0.63755],[109.505,-0.63936],[109.51025,-0.63786],[109.51731,-0.64482],[109.52566,-0.63925],[109.52824,-0.6471],[109.53331,-0.64568],[109.54211,-0.64637],[109.54403,-0.6536],[109.54763,-0.65603],[109.55165,-0.65187],[109.55479,-0.6557],[109.55797,-0.65682],[109.56391,-0.65261],[109.56867,-0.65714],[109.57158,-0.65628],[109.57294,-0.65313],[109.57782,-0.65508],[109.58364,-0.65302],[109.58461,-0.66138],[109.58084,-0.67579],[109.58316,-0.686],[109.57471,-0.68731],[109.54605,-0.70323],[109.52905,-0.69567],[109.49877,-0.69393],[109.49782,-0.68836],[109.48399,-0.68218],[109.4807,-0.67693],[109.47274,-0.67085],[109.48168,-0.66828],[109.48445,-0.67363],[109.49099,-0.67433],[109.49245,-0.6696],[109.49627,-0.66703],[109.49662,-0.66154],[109.48786,-0.66231],[109.48251,-0.6573],[109.47994,-0.64876],[109.47424,-0.64264],[109.4674,-0.6382],[109.45831,-0.63598],[109.4594,-0.63128],[109.4682,-0.62925],[109.47268,-0.62373],[109.48296,-0.62847]]],[[[109.36401,-0.6174],[109.37694,-0.6239],[109.38562,-0.62466],[109.40384,-0.63713],[109.4165,-0.64247],[109.42456,-0.64891],[109.4331,-0.65118],[109.45018,-0.66062],[109.4743,-0.67689],[109.47694,-0.68087],[109.47677,-0.68566],[109.47456,-0.68811],[109.47196,-0.68816],[109.46787,-0.68004],[109.45822,-0.67514],[109.45425,-0.67082],[109.44671,-0.66982],[109.44177,-0.66658],[109.43908,-0.66707],[109.43635,-0.67431],[109.42339,-0.6675],[109.41882,-0.6678],[109.40588,-0.6727],[109.39127,-0.6585],[109.37956,-0.65347],[109.37292,-0.6482],[109.36849,-0.64873],[109.36012,-0.65335],[109.35926,-0.64775],[109.35116,-0.63479],[109.35756,-0.61912],[109.36052,-0.61729],[109.36401,-0.6174]]],[[[109.31135,-0.61236],[109.30859,-0.61331],[109.30678,-0.61291],[109.30995,-0.61173],[109.31135,-0.61236]]],[[[109.383,-0.6096],[109.38235,-0.61088],[109.3827,-0.60941],[109.383,-0.6096]]],[[[109.31146,-0.61139],[109.31096,-0.61002],[109.31254,-0.60934],[109.31262,-0.60988],[109.31146,-0.61139]]],[[[109.29921,-0.5942],[109.30743,-0.60114],[109.29013,-0.60936],[109.28853,-0.61189],[109.28127,-0.61316],[109.28099,-0.61068],[109.28396,-0.607],[109.28602,-0.59964],[109.29457,-0.59424],[109.29921,-0.5942]]],[[[109.33454,-0.57357],[109.33388,-0.57655],[109.32427,-0.58207],[109.32506,-0.57427],[109.33454,-0.57357]]],[[[109.10142,-0.20611],[109.10212,-0.20768],[109.10163,-0.20934],[109.09949,-0.20703],[109.10142,-0.20611]]],[[[109.12715,-0.20221],[109.14239,-0.2046],[109.15909,-0.21099],[109.17095,-0.20731],[109.17711,-0.20753],[109.18689,-0.21197],[109.19314,-0.2187],[109.18565,-0.22337],[109.17655,-0.22501],[109.17213,-0.23106],[109.16237,-0.22965],[109.15301,-0.23365],[109.13242,-0.23639],[109.12423,-0.25],[109.11688,-0.25748],[109.10947,-0.261],[109.09212,-0.26518],[109.08725,-0.26914],[109.08567,-0.26814],[109.08333,-0.26996],[109.08333,-0.28782],[109.08718,-0.29431],[109.10011,-0.30765],[109.10138,-0.32322],[109.10364,-0.33168],[109.10188,-0.33328],[109.09566,-0.33238],[109.09262,-0.3303],[109.08273,-0.31253],[109.06933,-0.29429],[109.05808,-0.27344],[109.05396,-0.25943],[109.05326,-0.24837],[109.05874,-0.21336],[109.05953,-0.21172],[109.06075,-0.2127],[109.06101,-0.21653],[109.06564,-0.2205],[109.07259,-0.22001],[109.09043,-0.20665],[109.09584,-0.20956],[109.09884,-0.20676],[109.10173,-0.21058],[109.10365,-0.20585],[109.11008,-0.20345],[109.12715,-0.20221]]],[[[109.07362,-0.19478],[109.06721,-0.19621],[109.06414,-0.19494],[109.06895,-0.19059],[109.07362,-0.19478]]],[[[109.12653,-0.17621],[109.13208,-0.17697],[109.14209,-0.18223],[109.15993,-0.18819],[109.16854,-0.19469],[109.17309,-0.20129],[109.16363,-0.20724],[109.15919,-0.208],[109.13375,-0.19621],[109.11823,-0.19783],[109.09939,-0.19536],[109.08973,-0.19161],[109.0858,-0.18671],[109.08776,-0.18129],[109.09331,-0.17917],[109.09757,-0.17347],[109.10182,-0.17123],[109.10284,-0.16854],[109.11,-0.16843],[109.12653,-0.17621]]],[[[109.07974,-0.16781],[109.08543,-0.17007],[109.09475,-0.17072],[109.09483,-0.17262],[109.09139,-0.17529],[109.08795,-0.17296],[109.08281,-0.17423],[109.08199,-0.17218],[109.08321,-0.17091],[109.08053,-0.16983],[109.08354,-0.16938],[109.07974,-0.16781]]],[[[109.16048,-0.1854],[109.1424,-0.17991],[109.12602,-0.16693],[109.12516,-0.16196],[109.12721,-0.1464],[109.13143,-0.14724],[109.13754,-0.15233],[109.14708,-0.16777],[109.15951,-0.17864],[109.16048,-0.1854]]],[[[109.12537,-0.15029],[109.12381,-0.16864],[109.11892,-0.16869],[109.11341,-0.16653],[109.1107,-0.16127],[109.10402,-0.15772],[109.0974,-0.15062],[109.09195,-0.15138],[109.08938,-0.15013],[109.09392,-0.12993],[109.10334,-0.12084],[109.11302,-0.11706],[109.11618,-0.12414],[109.11491,-0.1301],[109.11713,-0.13532],[109.12416,-0.1435],[109.12537,-0.15029]]],[[[109.12112,-0.11726],[109.11803,-0.10875],[109.1192,-0.10573],[109.12297,-0.10321],[109.12578,-0.10945],[109.12112,-0.11726]]],[[[109.17617,-0.10279],[109.17328,-0.10251],[109.16994,-0.09364],[109.16944,-0.08935],[109.17075,-0.08765],[109.17551,-0.08896],[109.17617,-0.10279]]],[[[109.172,-0.11072],[109.18454,-0.12782],[109.18661,-0.13994],[109.18126,-0.16201],[109.1814,-0.17998],[109.17614,-0.19448],[109.16281,-0.18569],[109.16112,-0.17811],[109.14946,-0.16789],[109.14327,-0.15986],[109.13945,-0.15004],[109.13111,-0.13992],[109.12781,-0.13341],[109.12889,-0.13252],[109.13094,-0.13457],[109.12811,-0.12698],[109.12829,-0.11782],[109.12547,-0.11797],[109.12399,-0.11619],[109.12623,-0.10916],[109.12401,-0.10368],[109.13824,-0.08072],[109.16198,-0.05843],[109.1644,-0.06179],[109.16432,-0.06977],[109.16748,-0.07946],[109.16546,-0.09244],[109.17032,-0.10102],[109.172,-0.11072]]],[[[109.25312,0.01616],[109.24732,0.018],[109.24384,0.02431],[109.25022,0.02123],[109.25312,0.01616]]],[[[109.24361,0.01965],[109.23811,0.02217],[109.23213,0.02948],[109.24069,0.02584],[109.24361,0.01965]]],[[[109.23205,0.02846],[109.23021,0.02915],[109.2278,0.03167],[109.23125,0.0301],[109.23205,0.02846]]],[[[109.19051,0.05126],[109.1946,0.04744],[109.19624,0.04868],[109.20018,0.04739],[109.22057,0.03678],[109.2349,0.02521],[109.23901,0.01888],[109.21826,0.01981],[109.21106,0.02453],[109.1784,0.03634],[109.17757,0.04602],[109.18185,0.04888],[109.18751,0.04826],[109.20026,0.03977],[109.18955,0.049],[109.18899,0.05098],[109.19051,0.05126]]],[[[108.86063,0.51313],[108.85772,0.50264],[108.86221,0.4963],[108.86191,0.49045],[108.86388,0.48712],[108.86281,0.48104],[108.85842,0.47521],[108.85749,0.48104],[108.8544,0.48686],[108.84924,0.48962],[108.84721,0.49361],[108.84329,0.49334],[108.83974,0.49515],[108.83816,0.49941],[108.84076,0.50114],[108.83887,0.50303],[108.83958,0.50477],[108.8481,0.50414],[108.8507,0.50642],[108.8518,0.51116],[108.85007,0.51384],[108.8563,0.51068],[108.85772,0.5125],[108.85677,0.51604],[108.85858,0.51667],[108.86063,0.51313]]],[[[108.87414,0.70654],[108.8734,0.70554],[108.87327,0.70566],[108.87414,0.70654]]],[[[108.85959,0.71444],[108.86515,0.70863],[108.8661,0.70523],[108.86499,0.70309],[108.85845,0.70781],[108.86023,0.7103],[108.85959,0.71444]]],[[[108.86062,0.71817],[108.85898,0.71798],[108.86028,0.71884],[108.86062,0.71817]]],[[[108.79024,0.75389],[108.79574,0.75209],[108.79619,0.74939],[108.79336,0.74894],[108.7942,0.74638],[108.79198,0.74746],[108.78695,0.74391],[108.78577,0.74669],[108.78728,0.74849],[108.78593,0.74926],[108.7886,0.75158],[108.7868,0.75213],[108.7867,0.75409],[108.78873,0.75621],[108.79024,0.75389]]],[[[108.77002,0.72952],[108.76834,0.72916],[108.76319,0.73418],[108.7591,0.74426],[108.75883,0.76098],[108.76238,0.76435],[108.7654,0.76373],[108.76682,0.7616],[108.76727,0.74818],[108.77198,0.73601],[108.77002,0.72952]]],[[[108.70052,0.80433],[108.70697,0.8033],[108.71099,0.79997],[108.71043,0.78833],[108.70655,0.77807],[108.71542,0.76532],[108.71639,0.76047],[108.7272,0.75243],[108.72859,0.74591],[108.72734,0.73205],[108.72292,0.73263],[108.71782,0.73096],[108.71334,0.73288],[108.70711,0.74383],[108.70613,0.75825],[108.70239,0.76615],[108.69491,0.77564],[108.6914,0.79873],[108.70052,0.80433]]],[[[108.79122,0.84026],[108.79407,0.83577],[108.78659,0.8231],[108.78271,0.82132],[108.7771,0.82202],[108.77583,0.83067],[108.77827,0.83212],[108.77593,0.8331],[108.77747,0.83834],[108.78201,0.84007],[108.79122,0.84026]]],[[[109.63019,2.03652],[109.63821,2.02771],[109.6297,2.01418],[109.63056,2.0045],[109.62652,1.99654],[109.62725,1.99075],[109.62388,1.99198],[109.62042,1.98311],[109.61351,1.98261],[109.60695,1.97978],[109.60062,1.97389],[109.59816,1.97491],[109.59762,1.97879],[109.57642,1.97784],[109.56626,1.9726],[109.56024,1.97122],[109.55789,1.96633],[109.55326,1.96593],[109.55473,1.96205],[109.55171,1.95623],[109.5561,1.95442],[109.56067,1.95506],[109.56491,1.95122],[109.56362,1.94824],[109.567,1.94574],[109.56613,1.94316],[109.56199,1.94068],[109.56443,1.93661],[109.55735,1.93368],[109.55538,1.93025],[109.55624,1.92875],[109.55253,1.93014],[109.54779,1.92697],[109.54488,1.92863],[109.54008,1.92646],[109.53805,1.92714],[109.53835,1.9172],[109.53883,1.91183],[109.5461,1.90388],[109.54761,1.89542],[109.54438,1.89149],[109.54835,1.88459],[109.54955,1.87728],[109.55172,1.87745],[109.55435,1.87282],[109.55829,1.87206],[109.55223,1.86282],[109.55157,1.85908],[109.55474,1.85562],[109.55334,1.85355],[109.55503,1.8509],[109.56132,1.84858],[109.56372,1.84326],[109.57317,1.84266],[109.57624,1.84674],[109.57576,1.84381],[109.57943,1.83681],[109.58241,1.83546],[109.58162,1.83071],[109.5861,1.81948],[109.58514,1.8143],[109.58647,1.81264],[109.58414,1.80965],[109.58069,1.80841],[109.57922,1.80504],[109.58133,1.79845],[109.58633,1.7919],[109.60049,1.79797],[109.60238,1.79585],[109.61247,1.79626],[109.62282,1.80328],[109.62997,1.80008],[109.6354,1.80536],[109.63705,1.80504],[109.63917,1.79928],[109.64173,1.79762],[109.64923,1.79598],[109.66037,1.79814],[109.66869,1.79337],[109.67436,1.78754],[109.68296,1.78618],[109.68549,1.78214],[109.68354,1.7755],[109.68512,1.76842],[109.68058,1.7589],[109.67834,1.74912],[109.67169,1.74231],[109.67106,1.73774],[109.6677,1.73314],[109.66719,1.72494],[109.66859,1.72074],[109.66707,1.71807],[109.66731,1.7123],[109.66987,1.69927],[109.66527,1.69761],[109.66089,1.69325],[109.66431,1.68294],[109.6633,1.67984],[109.66021,1.67755],[109.66022,1.67386],[109.66517,1.66],[109.66518,1.65496],[109.66701,1.65256],[109.6578,1.63662],[109.66199,1.61742],[109.66594,1.61547],[109.66591,1.61402],[109.67761,1.61102],[109.68254,1.61195],[109.68853,1.60981],[109.68999,1.60387],[109.69486,1.59783],[109.69333,1.59517],[109.69685,1.58816],[109.70102,1.58494],[109.70704,1.58637],[109.70834,1.58128],[109.71241,1.57947],[109.71366,1.57467],[109.71664,1.57155],[109.71673,1.56831],[109.71981,1.56845],[109.72177,1.56276],[109.72649,1.5624],[109.72921,1.55871],[109.73229,1.55829],[109.73346,1.55319],[109.74301,1.5476],[109.74394,1.54495],[109.74667,1.54368],[109.75076,1.53515],[109.75577,1.53836],[109.75756,1.53558],[109.76689,1.53282],[109.77065,1.52467],[109.77001,1.52213],[109.77771,1.51525],[109.78062,1.50882],[109.78365,1.51018],[109.78923,1.50801],[109.79245,1.50882],[109.79605,1.5046],[109.7986,1.50468],[109.80032,1.49937],[109.79924,1.49499],[109.80266,1.49328],[109.80238,1.48942],[109.80428,1.48597],[109.7974,1.48252],[109.80126,1.46953],[109.804,1.46899],[109.80344,1.46507],[109.80616,1.46651],[109.81131,1.46525],[109.81341,1.46675],[109.81459,1.47167],[109.81953,1.4717],[109.81997,1.4731],[109.82427,1.47172],[109.82495,1.47498],[109.82926,1.47865],[109.82887,1.4813],[109.83233,1.48402],[109.83361,1.48216],[109.83735,1.48381],[109.83931,1.48276],[109.83727,1.4697],[109.83383,1.46358],[109.83408,1.46001],[109.83045,1.45649],[109.83135,1.4525],[109.8335,1.45214],[109.83368,1.44303],[109.83598,1.44105],[109.83332,1.42743],[109.83728,1.42192],[109.84059,1.42324],[109.84349,1.42169],[109.84668,1.42586],[109.85628,1.42139],[109.85818,1.41867],[109.86517,1.41734],[109.88996,1.41801],[109.8933,1.41728],[109.89392,1.41462],[109.91383,1.42317],[109.92909,1.42553],[109.94762,1.40762],[109.95502,1.40599],[109.95552,1.40712],[109.95952,1.40328],[109.96326,1.40411],[109.96244,1.40066],[109.96457,1.39638],[109.96408,1.39291],[109.97032,1.3895],[109.97025,1.387],[109.97149,1.38667],[109.97035,1.38498],[109.96755,1.38513],[109.96689,1.37636],[109.96203,1.37298],[109.9646,1.36849],[109.96455,1.36489],[109.96828,1.36279],[109.96816,1.35668],[109.97005,1.35572],[109.96919,1.35254],[109.97052,1.34695],[109.96852,1.34165],[109.97942,1.29845],[109.98103,1.29673],[109.9834,1.29783],[109.99362,1.29364],[109.99967,1.29664],[110.00823,1.29526],[110.01107,1.29208],[110.01495,1.29157],[110.01843,1.28408],[110.02445,1.28364],[110.03778,1.27517],[110.03929,1.2756],[110.04096,1.27099],[110.04409,1.27338],[110.04449,1.27157],[110.04906,1.26926],[110.04584,1.26674],[110.05093,1.26446],[110.05464,1.26847],[110.05887,1.27009],[110.06266,1.26446],[110.06561,1.26427],[110.06285,1.26169],[110.06721,1.25536],[110.06523,1.25103],[110.06976,1.24064],[110.06999,1.238],[110.06768,1.23591],[110.07008,1.2284],[110.06842,1.226],[110.06233,1.22506],[110.0582,1.22118],[110.06248,1.21591],[110.0651,1.20898],[110.08658,1.21789],[110.0924,1.20674],[110.09592,1.20333],[110.09563,1.20081],[110.09859,1.19835],[110.12256,1.1968],[110.12669,1.19461],[110.12975,1.19545],[110.13203,1.19916],[110.13427,1.19757],[110.13893,1.19993],[110.14325,1.19968],[110.15254,1.19691],[110.15419,1.19865],[110.1591,1.19881],[110.16243,1.19608],[110.16513,1.19607],[110.17125,1.1872],[110.17218,1.18801],[110.18658,1.18312],[110.1892,1.18279],[110.1909,1.18464],[110.19302,1.18288],[110.19572,1.17516],[110.19828,1.17362],[110.20044,1.16801],[110.20721,1.16461],[110.20665,1.1577],[110.21271,1.15079],[110.21196,1.14091],[110.20599,1.13837],[110.20524,1.13297],[110.20778,1.13085],[110.20695,1.12877],[110.21046,1.11857],[110.21596,1.11519],[110.2235,1.11417],[110.22842,1.11924],[110.23173,1.12033],[110.24126,1.11792],[110.24455,1.11325],[110.2441,1.11118],[110.24956,1.10762],[110.24658,1.10655],[110.24588,1.103],[110.24794,1.09806],[110.24745,1.08644],[110.25161,1.07964],[110.26353,1.0744],[110.26444,1.06798],[110.26722,1.06633],[110.26044,1.06174],[110.26026,1.05759],[110.26332,1.05644],[110.2675,1.0505],[110.26944,1.05342],[110.27605,1.05148],[110.27931,1.0523],[110.28633,1.04452],[110.28665,1.04026],[110.27815,1.03257],[110.28291,1.01824],[110.28236,1.00977],[110.27954,1.00709],[110.2776,0.99963],[110.27568,0.99829],[110.27695,0.99611],[110.27895,0.9971],[110.29011,0.9955],[110.29261,0.99823],[110.29581,0.99788],[110.2984,0.9956],[110.30263,0.99949],[110.30435,0.99904],[110.30534,1.00352],[110.30796,1.00384],[110.30917,1.00045],[110.3139,0.99981],[110.3156,1.00194],[110.31925,1.00077],[110.32517,0.99208],[110.32779,0.99334],[110.32999,1.00115],[110.32889,1.00302],[110.33089,1.00687],[110.33587,1.00527],[110.33746,1.00637],[110.33626,1.00965],[110.33937,1.01265],[110.34379,1.00633],[110.34166,0.99778],[110.34345,0.99193],[110.35311,0.98648],[110.35364,0.98786],[110.35736,0.98743],[110.35743,0.98932],[110.35938,0.98573],[110.35782,0.98458],[110.35879,0.98345],[110.37069,0.98791],[110.37085,0.99129],[110.37864,0.99579],[110.38471,0.99582],[110.38914,0.9936],[110.39366,0.9965],[110.39364,0.9986],[110.39645,0.99769],[110.39546,0.99622],[110.39742,0.99424],[110.39739,0.99036],[110.40092,0.98855],[110.40442,0.98972],[110.40243,0.98559],[110.40645,0.97624],[110.40473,0.97193],[110.40937,0.96848],[110.41022,0.96506],[110.40802,0.96388],[110.40876,0.95803],[110.40544,0.95303],[110.4157,0.95092],[110.41746,0.95203],[110.41783,0.95066],[110.42036,0.95239],[110.42457,0.94671],[110.42941,0.94476],[110.43091,0.94717],[110.43361,0.94501],[110.43554,0.94673],[110.439,0.94374],[110.43858,0.9401],[110.44059,0.93701],[110.43715,0.93217],[110.43274,0.92974],[110.43306,0.92535],[110.43798,0.92257],[110.43828,0.91739],[110.44658,0.90754],[110.45272,0.90938],[110.45602,0.90643],[110.46275,0.90477],[110.46731,0.89259],[110.47961,0.892],[110.48056,0.88419],[110.48991,0.87972],[110.49048,0.87669],[110.50642,0.87337],[110.51207,0.87458],[110.52124,0.8699],[110.52955,0.87121],[110.53506,0.86779],[110.54513,0.86859],[110.54656,0.86398],[110.54985,0.86166],[110.5531,0.8618],[110.55349,0.85951],[110.56856,0.86069],[110.5699,0.85628],[110.57195,0.85676],[110.57541,0.85382],[110.57904,0.85835],[110.58624,0.85779],[110.58969,0.86033],[110.59559,0.85775],[110.59765,0.85876],[110.59969,0.86671],[110.60181,0.86888],[110.60997,0.86655],[110.61201,0.86937],[110.62106,0.86604],[110.62354,0.86916],[110.62882,0.86907],[110.62722,0.87132],[110.6305,0.87544],[110.63176,0.87426],[110.6351,0.87583],[110.63677,0.8801],[110.63248,0.88349],[110.63617,0.88879],[110.63485,0.89322],[110.63266,0.89473],[110.63341,0.89552],[110.63816,0.89237],[110.64213,0.8949],[110.64314,0.8977],[110.64618,0.89798],[110.64815,0.90221],[110.65158,0.9034],[110.65175,0.90077],[110.64789,0.89615],[110.65007,0.89391],[110.64981,0.89094],[110.65137,0.89054],[110.65253,0.89365],[110.65465,0.89115],[110.65346,0.88342],[110.65147,0.88019],[110.65359,0.87575],[110.65511,0.87669],[110.65815,0.8742],[110.65895,0.87106],[110.66226,0.87056],[110.66315,0.8735],[110.67023,0.87574],[110.67065,0.87754],[110.67265,0.87621],[110.67489,0.87833],[110.67594,0.8776],[110.67461,0.87556],[110.67996,0.87192],[110.68083,0.86901],[110.68326,0.86784],[110.6864,0.8704],[110.68806,0.8688],[110.6882,0.86487],[110.6946,0.86351],[110.69613,0.86456],[110.69594,0.86778],[110.69898,0.86962],[110.69913,0.87321],[110.69647,0.87462],[110.69589,0.87686],[110.6975,0.87796],[110.6976,0.8841],[110.70275,0.88643],[110.70443,0.89144],[110.70893,0.89427],[110.71029,0.89708],[110.71178,0.89649],[110.7163,0.90608],[110.71889,0.90483],[110.72162,0.90694],[110.7261,0.90572],[110.72744,0.90737],[110.73474,0.90736],[110.74136,0.90344],[110.7484,0.90326],[110.75002,0.89973],[110.75565,0.89928],[110.75954,0.90575],[110.76485,0.90829],[110.76304,0.91567],[110.76046,0.91777],[110.7618,0.92341],[110.76481,0.92453],[110.76573,0.92952],[110.77141,0.93221],[110.77703,0.93055],[110.78061,0.92621],[110.78387,0.91245],[110.78995,0.91228],[110.79183,0.90806],[110.79647,0.90581],[110.79908,0.90726],[110.8032,0.90061],[110.81002,0.89993],[110.81223,0.90178],[110.81179,0.90347],[110.81441,0.90291],[110.81631,0.90537],[110.81785,0.9142],[110.81245,0.91768],[110.81411,0.92296],[110.81044,0.92752],[110.80622,0.93803],[110.8093,0.95],[110.81364,0.94916],[110.8162,0.94502],[110.81995,0.94732],[110.82323,0.95403],[110.8315,0.95106],[110.838,0.9513],[110.84708,0.95452],[110.85508,0.95054],[110.86118,0.9513],[110.85921,0.95355],[110.86268,0.96539],[110.86925,0.96548],[110.87311,0.97008],[110.87493,0.97027],[110.87657,0.97501],[110.88562,0.97811],[110.88997,0.98338],[110.89191,0.99537],[110.89167,1.00871],[110.89656,1.01082],[110.9,1.01471],[110.90328,1.02016],[110.90496,1.02854],[110.91858,1.03113],[110.9238,1.03046],[110.93148,1.02615],[110.93745,1.02601],[110.95855,1.02677],[110.96342,1.02968],[110.96988,1.03003],[110.97798,1.02754],[110.98769,1.02955],[110.995,1.02869],[110.99794,1.02934],[111.00246,1.03349],[111.00769,1.03268],[111.02194,1.03563],[111.02718,1.03444],[111.03431,1.03562],[111.04172,1.0407],[111.0545,1.04255],[111.06846,1.04938],[111.07451,1.04915],[111.07977,1.05114],[111.09203,1.04781],[111.10048,1.0506],[111.10611,1.04796],[111.11033,1.04952],[111.11271,1.05252],[111.13839,1.05047],[111.14979,1.05356],[111.15356,1.0529],[111.16511,1.06049],[111.17152,1.06139],[111.18178,1.06006],[111.1969,1.06454],[111.2133,1.07339],[111.22806,1.08288],[111.22804,1.08525],[111.23154,1.08615],[111.23591,1.08374],[111.23581,1.08202],[111.2447,1.07868],[111.25207,1.06296],[111.25577,1.06318],[111.2594,1.06612],[111.26585,1.06811],[111.27299,1.06788],[111.28821,1.05548],[111.29868,1.05405],[111.30949,1.04665],[111.32178,1.04298],[111.33561,1.04287],[111.34684,1.03841],[111.34926,1.04027],[111.35234,1.03953],[111.36488,1.0319],[111.36879,1.02708],[111.37883,1.02209],[111.38509,1.01502],[111.39482,1.01286],[111.39794,1.01405],[111.40413,1.01008],[111.4067,1.01155],[111.40901,1.00966],[111.40997,1.01052],[111.41343,1.00758],[111.41793,1.00836],[111.41918,1.01002],[111.42556,1.00884],[111.43256,1.01186],[111.44428,1.01353],[111.45719,1.02357],[111.46283,1.03182],[111.46439,1.03692],[111.48411,1.03436],[111.48866,1.03528],[111.4937,1.02735],[111.49699,1.02754],[111.49863,1.02352],[111.50559,1.02101],[111.50816,1.01239],[111.51331,1.00408],[111.51473,1.0039],[111.51674,0.98692],[111.51569,0.97463],[111.52093,0.95835],[111.52267,0.95602],[111.53075,0.95368],[111.53512,0.95598],[111.53913,0.95508],[111.54407,0.9494],[111.54817,0.94716],[111.55146,0.94747],[111.54637,0.95447],[111.55068,0.95561],[111.55055,0.96283],[111.55314,0.96448],[111.54909,0.96739],[111.55068,0.96919],[111.55045,0.97483],[111.54755,0.97467],[111.54649,0.97656],[111.54655,0.97849],[111.54998,0.98003],[111.54729,0.9859],[111.54877,0.98843],[111.55402,0.98451],[111.55567,0.98432],[111.55758,0.98694],[111.55726,0.9892],[111.56028,0.9882],[111.56184,0.98394],[111.56731,0.98468],[111.5672,0.97955],[111.57026,0.97716],[111.57349,0.98172],[111.57459,0.97929],[111.58095,0.97898],[111.58322,0.98637],[111.58067,0.99249],[111.58898,0.99626],[111.58909,1.00234],[111.59615,1.00914],[111.61379,1.01354],[111.6223,1.02146],[111.62479,1.0221],[111.62798,1.02046],[111.63117,1.02231],[111.63994,1.02211],[111.64054,1.02418],[111.63825,1.02594],[111.63917,1.03076],[111.65278,1.03345],[111.65727,1.03637],[111.65952,1.04199],[111.66638,1.04302],[111.68048,1.03134],[111.68669,1.02984],[111.69149,1.02496],[111.69279,1.01877],[111.69436,1.01785],[111.6961,1.01751],[111.70076,1.02286],[111.7131,1.02525],[111.71041,1.01454],[111.71742,1.00677],[111.72105,1.00556],[111.7302,1.00713],[111.73378,1.00615],[111.74154,1.00868],[111.7487,1.0085],[111.75961,1.01619],[111.7626,1.02134],[111.77123,1.01725],[111.77248,1.0063],[111.77736,0.99978],[111.79187,0.9943],[111.79954,1.00113],[111.80503,0.99858],[111.81301,0.99895],[111.8193,0.98505],[111.82286,0.98682],[111.82861,0.98618],[111.83759,0.99488],[111.84199,0.99605],[111.8419,0.99786],[111.8515,1.00257],[111.85943,1.00392],[111.8598,1.00795],[111.86318,1.01227],[111.86961,1.01313],[111.86914,1.01542],[111.87102,1.01627],[111.87221,1.02206],[111.87336,1.02176],[111.87249,1.02699],[111.87582,1.02709],[111.87759,1.03175],[111.87647,1.03192],[111.87589,1.0379],[111.87273,1.03967],[111.87399,1.04215],[111.87097,1.04512],[111.87324,1.04991],[111.87885,1.05034],[111.87696,1.05179],[111.87752,1.05384],[111.88188,1.05495],[111.88215,1.05972],[111.88598,1.06125],[111.88099,1.06551],[111.88692,1.07867],[111.89264,1.07316],[111.89432,1.07573],[111.9022,1.07457],[111.90494,1.07595],[111.90586,1.07841],[111.9088,1.07813],[111.91079,1.08058],[111.91118,1.083],[111.90792,1.08559],[111.9135,1.08785],[111.91307,1.09098],[111.91897,1.09157],[111.9199,1.08988],[111.92124,1.09165],[111.92335,1.09126],[111.92338,1.09268],[111.92895,1.09095],[111.92744,1.09298],[111.92888,1.09556],[111.92831,1.09841],[111.93369,1.10526],[111.93479,1.10922],[111.93323,1.11138],[111.93534,1.12215],[111.94882,1.11976],[111.95482,1.12832],[111.96283,1.12574],[111.96507,1.1268],[111.97126,1.12595],[111.9773,1.12864],[111.98207,1.127],[111.98455,1.1287],[111.98695,1.12758],[111.99132,1.13179],[111.99459,1.13015],[111.99561,1.13748],[111.99734,1.13957],[112.00367,1.13569],[112.00913,1.13502],[112.01042,1.13267],[112.01276,1.13286],[112.01502,1.13081],[112.02367,1.13138],[112.02749,1.13362],[112.03742,1.13363],[112.04518,1.13139],[112.04886,1.1339],[112.05298,1.13423],[112.05586,1.1372],[112.06072,1.13464],[112.07264,1.1337],[112.07972,1.13524],[112.08201,1.13296],[112.08676,1.13331],[112.08998,1.13541],[112.09133,1.13365],[112.09451,1.13463],[112.10032,1.13265],[112.10949,1.13408],[112.1196,1.1324],[112.12567,1.13417],[112.12911,1.13359],[112.12983,1.13605],[112.13203,1.13536],[112.13562,1.13832],[112.13929,1.13781],[112.14295,1.13503],[112.14405,1.14695],[112.14183,1.1521],[112.14762,1.16269],[112.1456,1.16609],[112.14169,1.16724],[112.1398,1.17387],[112.13504,1.17649],[112.13531,1.17802],[112.13626,1.18015],[112.13962,1.17962],[112.14895,1.18538],[112.15195,1.1916],[112.1587,1.19742],[112.15693,1.20413],[112.15777,1.2072],[112.16474,1.20987],[112.16224,1.2138],[112.16338,1.21671],[112.16163,1.22369],[112.15784,1.22831],[112.16029,1.23054],[112.15763,1.24221],[112.16121,1.24471],[112.16828,1.24471],[112.1684,1.24818],[112.17388,1.25293],[112.16917,1.26562],[112.17058,1.26957],[112.16975,1.27662],[112.1707,1.28171],[112.1761,1.28313],[112.17827,1.28571],[112.17706,1.29296],[112.17875,1.30442],[112.18627,1.30697],[112.19416,1.31236],[112.20239,1.31418],[112.20668,1.32313],[112.21801,1.33667],[112.21317,1.34644],[112.22411,1.35142],[112.22568,1.359],[112.22352,1.3614],[112.22362,1.36671],[112.22862,1.37078],[112.23232,1.37919],[112.23124,1.38754],[112.23348,1.39261],[112.23232,1.39819],[112.22894,1.39808],[112.22849,1.39526],[112.22382,1.39225],[112.21181,1.40591],[112.20973,1.40295],[112.20458,1.40276],[112.2,1.40736],[112.19999,1.41192],[112.2065,1.4199],[112.20492,1.42213],[112.2061,1.42708],[112.20447,1.42927],[112.20409,1.43541],[112.20635,1.4396],[112.20968,1.4418],[112.21223,1.44951],[112.22013,1.4525],[112.22312,1.45151],[112.22703,1.45658],[112.23069,1.45814],[112.23552,1.45885],[112.23998,1.45615],[112.24513,1.45963],[112.25207,1.45791],[112.25392,1.45991],[112.25969,1.46019],[112.26837,1.46861],[112.27817,1.46816],[112.28214,1.47204],[112.28857,1.47402],[112.29365,1.48407],[112.29792,1.48657],[112.30299,1.48679],[112.30666,1.49355],[112.31223,1.49475],[112.31934,1.50196],[112.31928,1.5076],[112.32928,1.50839],[112.33962,1.50536],[112.34522,1.50794],[112.35204,1.50374],[112.35464,1.50638],[112.36022,1.50609],[112.36408,1.5083],[112.36883,1.51329],[112.37332,1.51454],[112.37424,1.5166],[112.38631,1.51367],[112.38916,1.51775],[112.39107,1.51761],[112.39359,1.52266],[112.40083,1.5236],[112.40353,1.51996],[112.4154,1.52596],[112.42397,1.5275],[112.42598,1.52998],[112.43397,1.52716],[112.44436,1.53784],[112.44227,1.54474],[112.44331,1.54921],[112.44634,1.55316],[112.45535,1.5594],[112.46463,1.55977],[112.46965,1.56768],[112.4733,1.56779],[112.47596,1.57265],[112.48155,1.57142],[112.48599,1.57965],[112.49241,1.57864],[112.50103,1.58372],[112.50404,1.58386],[112.50404,1.58177],[112.50754,1.57757],[112.51529,1.57597],[112.52504,1.58038],[112.52746,1.57787],[112.53375,1.57595],[112.54027,1.57603],[112.5438,1.57392],[112.54586,1.57519],[112.54809,1.57411],[112.55775,1.57549],[112.56027,1.57232],[112.56868,1.57443],[112.57739,1.57211],[112.59754,1.57232],[112.60139,1.57369],[112.63254,1.56559],[112.64052,1.56577],[112.64894,1.5704],[112.6521,1.56911],[112.65773,1.57138],[112.66228,1.56936],[112.66799,1.55934],[112.67345,1.55767],[112.67691,1.55456],[112.68262,1.55643],[112.68545,1.55435],[112.68864,1.55542],[112.69409,1.55401],[112.7056,1.56085],[112.72439,1.56376],[112.72718,1.56796],[112.73484,1.56747],[112.74956,1.55764],[112.76312,1.5619],[112.76666,1.56466],[112.7685,1.56295],[112.77458,1.56376],[112.77794,1.56297],[112.78045,1.55957],[112.79465,1.55621],[112.79679,1.55474],[112.79933,1.54756],[112.8104,1.54342],[112.81252,1.54002],[112.8231,1.54032],[112.82559,1.545],[112.82923,1.54745],[112.8359,1.54404],[112.83764,1.53997],[112.84085,1.53816],[112.84623,1.53993],[112.84729,1.54902],[112.85125,1.55047],[112.85037,1.55494],[112.85434,1.55928],[112.86054,1.55895],[112.86627,1.56135],[112.86654,1.5676],[112.87176,1.57024],[112.87517,1.57412],[112.87747,1.58141],[112.88035,1.58485],[112.88449,1.58664],[112.89071,1.58492],[112.89463,1.5884],[112.90429,1.58403],[112.91551,1.583],[112.92081,1.57775],[112.91995,1.5755],[112.92357,1.57089],[112.93337,1.56736],[112.94246,1.56694],[112.94254,1.57019],[112.94877,1.5678],[112.95185,1.57404],[112.95685,1.57425],[112.95784,1.56982],[112.96393,1.56722],[112.96655,1.56837],[112.97464,1.563],[112.98451,1.56421],[112.9896,1.579],[112.99927,1.57821],[113.00013,1.57335],[113.00529,1.56912],[113.01153,1.57054],[113.01846,1.56955],[113.02159,1.56748],[113.02671,1.56823],[113.02996,1.56537],[113.03427,1.56643],[113.0413,1.56157],[113.0462,1.56147],[113.05299,1.5569],[113.05868,1.55858],[113.06389,1.55259],[113.06157,1.54727],[113.06416,1.54261],[113.06824,1.5405],[113.07067,1.52948],[113.06474,1.53082],[113.0611,1.52968],[113.0594,1.52595],[113.05526,1.52645],[113.05209,1.51936],[113.04485,1.51467],[113.04683,1.51098],[113.04668,1.50277],[113.04979,1.49959],[113.04689,1.4981],[113.0404,1.49819],[113.03945,1.49595],[113.03161,1.49276],[113.03915,1.48245],[113.04124,1.47617],[113.0405,1.47389],[113.03489,1.46998],[113.02831,1.47112],[113.02424,1.46634],[113.01405,1.46366],[113.00718,1.45819],[112.98638,1.45257],[112.98255,1.45004],[112.9833,1.44585],[112.98131,1.44056],[112.9752,1.43719],[112.97815,1.42392],[112.97513,1.41055],[112.98564,1.40786],[112.99089,1.40956],[112.99373,1.4084],[113.00623,1.40897],[113.01208,1.40592],[113.01851,1.40545],[113.02422,1.40761],[113.02701,1.41129],[113.0376,1.41537],[113.04367,1.42406],[113.05724,1.42108],[113.06352,1.42309],[113.07424,1.43142],[113.08423,1.42813],[113.08818,1.42879],[113.08996,1.43387],[113.09272,1.43499],[113.0913,1.43751],[113.09622,1.44243],[113.10554,1.44583],[113.11092,1.43576],[113.12072,1.43273],[113.12368,1.4287],[113.12222,1.42099],[113.12576,1.41483],[113.13155,1.41443],[113.13319,1.41261],[113.13346,1.40145],[113.14154,1.39497],[113.14416,1.38761],[113.15223,1.39213],[113.1553,1.39097],[113.15979,1.39189],[113.17099,1.38654],[113.17224,1.38376],[113.17528,1.3831],[113.18104,1.37804],[113.18877,1.37671],[113.19104,1.37944],[113.1944,1.37951],[113.19682,1.38139],[113.20053,1.37877],[113.21191,1.38241],[113.21959,1.38141],[113.22196,1.38321],[113.22259,1.38953],[113.22476,1.38926],[113.22703,1.39199],[113.23236,1.39436],[113.24107,1.39259],[113.24493,1.38597],[113.24997,1.38213],[113.25784,1.38272],[113.26076,1.38796],[113.26462,1.38653],[113.26783,1.38769],[113.27482,1.38028],[113.28019,1.37926],[113.28225,1.38136],[113.28564,1.3813],[113.30265,1.37431],[113.30671,1.37078],[113.31298,1.37209],[113.31628,1.37504],[113.32799,1.37533],[113.33003,1.36864],[113.33514,1.36436],[113.34349,1.36298],[113.347,1.35893],[113.35144,1.35728],[113.35694,1.35781],[113.36168,1.34875],[113.36527,1.34604],[113.36605,1.33689],[113.36969,1.33364],[113.36785,1.32692],[113.36977,1.32364],[113.37673,1.32291],[113.38113,1.31959],[113.39846,1.318],[113.40394,1.30977],[113.41011,1.30495],[113.41136,1.29871],[113.42005,1.29079],[113.42132,1.28537],[113.42758,1.28612],[113.441,1.28352],[113.45431,1.28629],[113.45409,1.28847],[113.45796,1.29544],[113.46464,1.30073],[113.46597,1.30395],[113.47344,1.30572],[113.47898,1.305],[113.48331,1.30883],[113.48779,1.30765],[113.49984,1.31809],[113.50323,1.31619],[113.50898,1.3171],[113.51482,1.31429],[113.52749,1.3205],[113.53696,1.32258],[113.54928,1.32025],[113.55815,1.31293],[113.56002,1.30912],[113.5633,1.30842],[113.56768,1.31032],[113.57466,1.30633],[113.57952,1.30902],[113.58322,1.30813],[113.58456,1.29356],[113.59261,1.28828],[113.59177,1.28153],[113.59564,1.27863],[113.59726,1.26279],[113.61146,1.25783],[113.6171,1.25387],[113.61969,1.25448],[113.62578,1.25241],[113.6281,1.24149],[113.62068,1.23461],[113.61885,1.22995],[113.62402,1.22842],[113.62697,1.22141],[113.6321,1.21912],[113.64443,1.22365],[113.65046,1.22406],[113.65733,1.22275],[113.66106,1.21778],[113.66673,1.21842],[113.6675,1.22001],[113.6646,1.22434],[113.66672,1.23],[113.67007,1.23393],[113.6776,1.23397],[113.68985,1.24244],[113.69255,1.24851],[113.70103,1.25921],[113.70327,1.26546],[113.71046,1.2661],[113.71479,1.26422],[113.72018,1.2696],[113.72468,1.27005],[113.72566,1.27152],[113.73509,1.2705],[113.73732,1.27507],[113.74055,1.27445],[113.74891,1.278],[113.75561,1.2767],[113.76189,1.2826],[113.76167,1.28474],[113.77576,1.28948],[113.78556,1.2966],[113.8037,1.30038],[113.80442,1.30769],[113.81552,1.31335],[113.81837,1.32202],[113.82351,1.32393],[113.82533,1.32706],[113.82477,1.33079],[113.82945,1.3344],[113.83045,1.33737],[113.82851,1.34246],[113.83045,1.35072],[113.82983,1.35569],[113.82406,1.35678],[113.82285,1.35951],[113.8147,1.36627],[113.82127,1.37065],[113.82163,1.37356],[113.82637,1.37424],[113.83576,1.38042],[113.84494,1.38079],[113.84895,1.3835],[113.84913,1.38893],[113.8675,1.38738],[113.87624,1.38995],[113.87943,1.39637],[113.88408,1.40038],[113.90345,1.4061],[113.90908,1.41119],[113.91012,1.4145],[113.91286,1.41495],[113.91712,1.41094],[113.92611,1.41226],[113.9302,1.41643],[113.93767,1.41881],[113.94391,1.43348],[113.95025,1.44014],[113.95499,1.44285],[113.96255,1.444],[113.9674,1.4421],[113.97015,1.44703],[113.97469,1.44975],[113.98279,1.44906],[113.99612,1.444],[114.00897,1.45084],[114.01535,1.44912],[114.02636,1.45354],[114.03152,1.45111],[114.03653,1.45293],[114.04679,1.45255],[114.05167,1.45817],[114.05791,1.45753],[114.06072,1.45989],[114.06369,1.4596],[114.07786,1.46591],[114.08476,1.46294],[114.0959,1.46684],[114.10212,1.46327],[114.10449,1.45643],[114.10784,1.45583],[114.11428,1.45624],[114.11854,1.45926],[114.1203,1.46336],[114.13325,1.4635],[114.13562,1.46612],[114.14077,1.46651],[114.14803,1.46282],[114.1517,1.45337],[114.15619,1.4515],[114.15869,1.44205],[114.16514,1.44263],[114.17556,1.43639],[114.17785,1.4364],[114.18399,1.43019],[114.19108,1.42874],[114.19182,1.42558],[114.19471,1.42281],[114.20214,1.42111],[114.20216,1.41707],[114.20539,1.41037],[114.19964,1.40291],[114.19766,1.3969],[114.17875,1.39465],[114.16565,1.38155],[114.16629,1.3756],[114.16907,1.36997],[114.17693,1.36768],[114.18026,1.36298],[114.18908,1.3621],[114.1906,1.35923],[114.1889,1.35265],[114.19553,1.3465],[114.19984,1.3496],[114.20365,1.34902],[114.20569,1.34746],[114.20715,1.34196],[114.20919,1.3339],[114.2069,1.32653],[114.20856,1.32426],[114.20878,1.30975],[114.21053,1.30599],[114.19632,1.2988],[114.19478,1.29414],[114.19693,1.28952],[114.19627,1.28538],[114.18799,1.28055],[114.187,1.26884],[114.19234,1.26274],[114.1921,1.25922],[114.19441,1.25468],[114.2052,1.24177],[114.2078,1.23612],[114.20897,1.21853],[114.20771,1.21615],[114.20117,1.21396],[114.20027,1.21177],[114.19776,1.19595],[114.19893,1.19154],[114.20311,1.18648],[114.20729,1.18503],[114.21156,1.17358],[114.22069,1.1672],[114.22264,1.16337],[114.22192,1.16118],[114.18019,1.15202],[114.17557,1.14992],[114.17303,1.14499],[114.16288,1.13823],[114.14616,1.13499],[114.12823,1.12744],[114.11003,1.11422],[114.09371,1.10636],[114.08663,1.1049],[114.07847,1.10562],[114.07206,1.10929],[114.06552,1.11621],[114.06188,1.12551],[114.05825,1.12769],[114.05462,1.1275],[114.04972,1.12403],[114.04157,1.11436],[114.03631,1.11089],[114.02867,1.11176],[113.99801,1.12415],[113.98668,1.12609],[113.98264,1.1209],[113.97185,1.11977],[113.96282,1.11006],[113.96088,1.09905],[113.96312,1.09111],[113.95764,1.08349],[113.95473,1.07312],[113.94949,1.06648],[113.94824,1.06124],[113.94244,1.05898],[113.90265,1.05869],[113.89527,1.05518],[113.8897,1.04739],[113.88853,1.03811],[113.89336,1.01924],[113.8971,1.01645],[113.90814,1.01379],[113.91572,1.00301],[113.91222,0.98123],[113.91462,0.97663],[113.91189,0.96791],[113.90586,0.96424],[113.90263,0.95903],[113.89792,0.95846],[113.89489,0.95624],[113.89628,0.94884],[113.8912,0.9418],[113.88437,0.93702],[113.88367,0.92769],[113.87217,0.91674],[113.87316,0.90195],[113.87797,0.90139],[113.87852,0.8965],[113.8712,0.88869],[113.87689,0.87919],[113.88034,0.8768],[113.8896,0.87075],[113.89496,0.87255],[113.89633,0.86442],[113.89961,0.85966],[113.90495,0.85789],[113.90617,0.85413],[113.91082,0.85109],[113.92245,0.84753],[113.92538,0.84494],[113.92639,0.84036],[113.92019,0.82826],[113.91363,0.82387],[113.90978,0.8118],[113.88814,0.79526],[113.88162,0.78466],[113.87396,0.77979],[113.87347,0.77646],[113.87947,0.7719],[113.88506,0.76325],[113.88478,0.75889],[113.89608,0.75459],[113.89714,0.74515],[113.89487,0.73858],[113.87995,0.71748],[113.87476,0.7128],[113.85964,0.7127],[113.84904,0.7093],[113.84367,0.70566],[113.83594,0.68244],[113.84088,0.66673],[113.84338,0.66437],[113.83956,0.65935],[113.82285,0.65217],[113.81312,0.6434],[113.80851,0.63389],[113.8062,0.61643],[113.80205,0.60594],[113.80011,0.60461],[113.79378,0.6046],[113.77863,0.59005],[113.77608,0.58181],[113.77468,0.56567],[113.7724,0.56371],[113.76412,0.5668],[113.75859,0.56529],[113.75,0.55739],[113.74865,0.54984],[113.7385,0.54362],[113.7339,0.5378],[113.72108,0.53605],[113.71728,0.5324],[113.71588,0.52742],[113.70473,0.51914],[113.69315,0.51732],[113.68513,0.50117],[113.67727,0.49463],[113.66864,0.49031],[113.66678,0.47643],[113.66042,0.46091],[113.66323,0.45032],[113.66,0.44162],[113.6572,0.4385],[113.6478,0.43416],[113.63418,0.4245],[113.58635,0.40457],[113.58197,0.39812],[113.57925,0.38755],[113.57475,0.38185],[113.561,0.37824],[113.55737,0.3731],[113.55543,0.36549],[113.54935,0.35839],[113.53101,0.34343],[113.52171,0.33897],[113.51544,0.33371],[113.51453,0.33094],[113.51672,0.32564],[113.51376,0.32051],[113.4958,0.30854],[113.45257,0.27178],[113.43798,0.26541],[113.41989,0.26312],[113.40727,0.26424],[113.38917,0.27185],[113.37524,0.2729],[113.35681,0.27815],[113.34903,0.27787],[113.33643,0.27424],[113.32314,0.27299],[113.31758,0.27065],[113.2964,0.25903],[113.28501,0.24881],[113.27132,0.24065],[113.27013,0.23806],[113.27229,0.23312],[113.29142,0.22159],[113.30679,0.20487],[113.31857,0.186],[113.32509,0.17974],[113.35085,0.16425],[113.37871,0.1547],[113.39635,0.14478],[113.41075,0.13438],[113.42069,0.12238],[113.42122,0.11609],[113.41325,0.10618],[113.41121,0.09937],[113.41546,0.08355],[113.41036,0.05797],[113.41049,0.04984],[113.41802,0.03602],[113.43827,0.01904],[113.44022,0.01439],[113.42754,-0.01297],[113.42968,-0.0275],[113.41896,-0.03912],[113.41744,-0.04884],[113.42059,-0.05417],[113.43155,-0.05519],[113.43652,-0.05759],[113.44001,-0.06213],[113.44144,-0.06833],[113.43998,-0.07586],[113.42545,-0.09185],[113.4231,-0.09635],[113.42262,-0.11209],[113.42091,-0.11727],[113.41407,-0.12186],[113.40202,-0.12253],[113.39747,-0.12696],[113.39719,-0.13311],[113.40011,-0.13569],[113.42073,-0.14151],[113.42107,-0.14518],[113.41408,-0.15927],[113.40638,-0.16544],[113.39644,-0.16373],[113.38834,-0.16651],[113.38589,-0.16921],[113.38824,-0.17943],[113.38712,-0.18518],[113.38444,-0.18926],[113.37497,-0.19457],[113.36842,-0.20475],[113.3597,-0.21304],[113.35252,-0.22375],[113.33608,-0.22769],[113.32365,-0.23793],[113.2975,-0.24018],[113.28757,-0.24485],[113.27926,-0.25483],[113.27466,-0.27068],[113.26998,-0.27413],[113.2625,-0.27455],[113.25748,-0.27697],[113.25,-0.28464],[113.23541,-0.29568],[113.23236,-0.30907],[113.22871,-0.31621],[113.22754,-0.32838],[113.22058,-0.3338],[113.20775,-0.33923],[113.20656,-0.34291],[113.20861,-0.34492],[113.2197,-0.348],[113.22467,-0.35149],[113.23046,-0.36435],[113.23686,-0.36761],[113.24023,-0.37059],[113.24207,-0.3756],[113.26231,-0.39166],[113.26209,-0.39843],[113.25749,-0.40827],[113.26522,-0.41912],[113.26631,-0.42389],[113.26423,-0.44191],[113.26177,-0.44604],[113.2569,-0.44883],[113.24959,-0.44709],[113.24649,-0.45018],[113.24348,-0.46153],[113.23965,-0.46846],[113.23426,-0.47084],[113.22958,-0.47571],[113.22706,-0.48192],[113.22615,-0.49842],[113.2213,-0.50515],[113.2172,-0.50704],[113.21065,-0.50627],[113.20631,-0.49477],[113.19975,-0.48409],[113.1945,-0.48105],[113.19003,-0.47314],[113.18541,-0.46994],[113.17772,-0.46877],[113.16508,-0.47126],[113.15581,-0.47042],[113.15301,-0.46374],[113.15379,-0.45134],[113.14962,-0.44853],[113.129,-0.45676],[113.11969,-0.47035],[113.11275,-0.47541],[113.11358,-0.48029],[113.11653,-0.48268],[113.11735,-0.48929],[113.11481,-0.49589],[113.10923,-0.50035],[113.10472,-0.49862],[113.10322,-0.48783],[113.10035,-0.48635],[113.09733,-0.48847],[113.09509,-0.49914],[113.09222,-0.4998],[113.08705,-0.49559],[113.0836,-0.49518],[113.06541,-0.5079],[113.05919,-0.50916],[113.05517,-0.50371],[113.04668,-0.49917],[113.02992,-0.47769],[113.02418,-0.47546],[113.01814,-0.48481],[113.01539,-0.49524],[113.00883,-0.4967],[113.00227,-0.49049],[112.99702,-0.48878],[112.99377,-0.4906],[112.97761,-0.51083],[112.96402,-0.51152],[112.94985,-0.51601],[112.93634,-0.52261],[112.91746,-0.52109],[112.9105,-0.52736],[112.90013,-0.5312],[112.88275,-0.5422],[112.86648,-0.54801],[112.84458,-0.56201],[112.83955,-0.56841],[112.83564,-0.57692],[112.81463,-0.58057],[112.80518,-0.5807],[112.78746,-0.58493],[112.78025,-0.57609],[112.77335,-0.57319],[112.75406,-0.57372],[112.74527,-0.57241],[112.72979,-0.58733],[112.72926,-0.59036],[112.73294,-0.60053],[112.73252,-0.62438],[112.73436,-0.62914],[112.73336,-0.63252],[112.72884,-0.63351],[112.71048,-0.6265],[112.70536,-0.62703],[112.703,-0.6302],[112.70326,-0.63931],[112.6976,-0.64146],[112.69301,-0.64555],[112.68895,-0.65585],[112.68698,-0.65744],[112.67805,-0.65651],[112.66743,-0.65916],[112.65561,-0.65613],[112.65036,-0.65652],[112.64656,-0.65785],[112.64517,-0.66283],[112.64605,-0.6732],[112.6436,-0.67646],[112.63905,-0.67827],[112.6189,-0.67621],[112.60938,-0.67728],[112.60182,-0.68086],[112.59613,-0.68798],[112.59103,-0.68916],[112.5855,-0.68785],[112.57778,-0.68136],[112.57316,-0.68353],[112.56924,-0.68778],[112.56798,-0.6962],[112.56378,-0.69699],[112.54053,-0.69492],[112.53396,-0.69729],[112.52375,-0.69317],[112.51031,-0.69834],[112.49764,-0.69828],[112.47303,-0.68655],[112.46658,-0.68075],[112.46283,-0.67238],[112.45643,-0.67521],[112.44941,-0.67586],[112.4425,-0.67254],[112.43144,-0.67136],[112.42777,-0.67336],[112.42453,-0.68207],[112.42006,-0.68635],[112.41559,-0.68678],[112.40885,-0.69336],[112.40464,-0.70338],[112.38755,-0.71354],[112.38505,-0.71367],[112.38106,-0.71017],[112.35709,-0.71544],[112.35016,-0.7051],[112.34594,-0.70551],[112.33802,-0.71079],[112.32871,-0.71357],[112.32277,-0.72084],[112.31471,-0.72259],[112.31016,-0.72048],[112.3018,-0.70683],[112.30169,-0.7033],[112.29525,-0.6964],[112.29012,-0.68292],[112.28518,-0.6752],[112.28518,-0.66877],[112.27372,-0.6467],[112.24333,-0.62475],[112.23457,-0.61674],[112.21397,-0.61384],[112.21041,-0.61517],[112.20714,-0.62948],[112.2042,-0.63288],[112.19215,-0.63507],[112.18069,-0.63963],[112.17771,-0.64273],[112.17431,-0.66083],[112.17593,-0.67109],[112.17496,-0.68256],[112.17272,-0.68545],[112.16613,-0.68748],[112.16538,-0.68984],[112.17007,-0.69883],[112.17011,-0.70585],[112.17637,-0.71581],[112.17659,-0.72245],[112.17514,-0.72578],[112.15787,-0.72663],[112.14631,-0.73037],[112.11765,-0.71325],[112.1085,-0.70154],[112.09413,-0.69746],[112.09104,-0.6987],[112.08505,-0.70199],[112.0777,-0.72234],[112.0727,-0.72812],[112.06174,-0.73876],[112.04582,-0.74537],[112.04313,-0.74843],[112.04146,-0.75584],[112.04569,-0.76217],[112.04562,-0.77067],[112.02768,-0.78028],[112.02178,-0.79004],[112.01821,-0.79079],[112.01323,-0.79465],[112.00326,-0.79643],[111.99432,-0.80044],[111.97858,-0.80097],[111.96932,-0.79884],[111.9607,-0.7907],[111.95411,-0.78749],[111.94645,-0.78728],[111.93538,-0.79242],[111.92548,-0.79175],[111.92219,-0.79392],[111.92038,-0.79649],[111.92304,-0.80655],[111.92156,-0.81576],[111.91773,-0.82154],[111.91764,-0.84134],[111.91509,-0.84348],[111.90977,-0.84348],[111.89955,-0.84027],[111.88849,-0.84135],[111.88509,-0.84863],[111.88466,-0.85955],[111.87701,-0.86811],[111.85211,-0.88439],[111.84403,-0.89938],[111.82531,-0.91149],[111.77993,-0.90942],[111.74982,-0.91264],[111.74302,-0.91671],[111.73982,-0.9211],[111.73706,-0.93224],[111.73493,-0.93417],[111.71514,-0.94166],[111.70513,-0.94207],[111.70235,-0.94421],[111.70408,-0.94916],[111.70089,-0.95323],[111.6811,-0.95966],[111.67174,-0.96116],[111.66578,-0.96566],[111.65642,-0.96951],[111.65237,-0.97069],[111.64344,-0.96994],[111.64003,-0.9723],[111.63822,-0.97433],[111.63727,-0.97996],[111.62695,-0.98847],[111.62204,-0.99908],[111.62129,-1.0119],[111.61684,-1.03002],[111.61684,-1.03578],[111.61811,-1.04197],[111.62405,-1.05476],[111.62384,-1.06478],[111.61939,-1.07097],[111.59552,-1.08184],[111.57925,-1.09622],[111.56827,-1.10963],[111.55669,-1.14567],[111.56298,-1.16661],[111.56662,-1.17226],[111.56802,-1.18137],[111.56668,-1.18653],[111.55811,-1.20136],[111.55033,-1.20864],[111.52426,-1.22041],[111.51661,-1.22214],[111.50547,-1.21912],[111.49501,-1.21273],[111.47079,-1.2132],[111.44631,-1.22403],[111.4274,-1.25394],[111.4012,-1.26451],[111.389,-1.27105],[111.38389,-1.28005],[111.3844,-1.29755],[111.38673,-1.30638],[111.39611,-1.32461],[111.39314,-1.32776],[111.33209,-1.3343],[111.33175,-1.34984],[111.3246,-1.36518],[111.31745,-1.36997],[111.28285,-1.40187],[111.25963,-1.41626],[111.24869,-1.4193],[111.22278,-1.42079],[111.21861,-1.42276],[111.20794,-1.43377],[111.20071,-1.43706],[111.19648,-1.43796],[111.16337,-1.43331],[111.15727,-1.43429],[111.14791,-1.44146],[111.13838,-1.45104],[111.13271,-1.45979],[111.12896,-1.47343],[111.12774,-1.49884],[111.11915,-1.51276],[111.11828,-1.51879],[111.11861,-1.5311],[111.12311,-1.54411],[111.1223,-1.54925],[111.11867,-1.55275],[111.0972,-1.55268],[111.08452,-1.55861],[111.07477,-1.55926],[111.06956,-1.55145],[111.06768,-1.53869],[111.05981,-1.53552],[111.04908,-1.53975],[111.03563,-1.54049],[111.02737,-1.54825],[111.02111,-1.55861],[111.01688,-1.56251],[111.0133,-1.56251],[111.00842,-1.56186],[110.99589,-1.55585],[110.98974,-1.54051],[110.98404,-1.5387],[110.97867,-1.53959],[110.97324,-1.54383],[110.96888,-1.55229],[110.96243,-1.55908],[110.95193,-1.57917],[110.94518,-1.58219],[110.91352,-1.5846],[110.89977,-1.59194],[110.89386,-1.60106],[110.88966,-1.61246],[110.88155,-1.61887],[110.8589,-1.6305],[110.85378,-1.63641],[110.85665,-1.6449],[110.85515,-1.67383],[110.86385,-1.68259],[110.88245,-1.67943],[110.88651,-1.68154],[110.89265,-1.68923],[110.89355,-1.70162],[110.9006,-1.71309],[110.90425,-1.71242],[110.9166,-1.7203],[110.92882,-1.71808],[110.94292,-1.71038],[110.94857,-1.70004],[110.95267,-1.68411],[110.95567,-1.67897],[110.96296,-1.67218],[110.97449,-1.66912],[110.98602,-1.67642],[111.00488,-1.70039],[111.00639,-1.70544],[111.00494,-1.72128],[111.0058,-1.72727],[111.01354,-1.73714],[111.01615,-1.74428],[111.01215,-1.75788],[111.01386,-1.77769],[111.00492,-1.8011],[110.98649,-1.81737],[110.97808,-1.83773],[110.97421,-1.87084],[110.97463,-1.87845],[110.98169,-1.88922],[110.99355,-1.89729],[110.99602,-1.90908],[110.99415,-1.92119],[110.99043,-1.92958],[110.98113,-1.94104],[110.9798,-1.95026],[110.98447,-1.95572],[110.99036,-1.95719],[111.01279,-1.95434],[111.01799,-1.95609],[111.05317,-1.98965],[111.05532,-1.99325],[111.05604,-1.99954],[111.05378,-2.00293],[111.05457,-2.0098],[111.05668,-2.01299],[111.05934,-2.01459],[111.07339,-2.01506],[111.08477,-2.01264],[111.08585,-2.01547],[111.08879,-2.01473],[111.09001,-2.0162],[111.0903,-2.02192],[111.08843,-2.02416],[111.08307,-2.0451],[111.06671,-2.05305],[111.06005,-2.05824],[111.05732,-2.0718],[111.06755,-2.1309],[111.07076,-2.14146],[111.07822,-2.15386],[111.07878,-2.1612],[111.07234,-2.17823],[111.06529,-2.18234],[111.06362,-2.18513],[111.06585,-2.19721],[111.063,-2.2029],[111.04064,-2.22222],[111.03507,-2.23156],[111.03189,-2.24106],[111.03349,-2.24867],[111.04139,-2.26246],[111.04942,-2.27227],[111.05853,-2.27812],[111.06958,-2.29958],[111.07979,-2.33888],[111.08952,-2.36292],[111.09602,-2.39973],[111.10319,-2.42411],[111.106,-2.44896],[111.10546,-2.48421],[111.1143,-2.51516],[111.11609,-2.54173],[111.13443,-2.59549],[111.1363,-2.61128],[111.13371,-2.62443],[111.12796,-2.63494],[111.12003,-2.64271],[111.11832,-2.64702],[111.11858,-2.65265],[111.12816,-2.66606],[111.13567,-2.67036],[111.14397,-2.67196],[111.16381,-2.6717],[111.17064,-2.68213],[111.17134,-2.69772],[111.16932,-2.70626],[111.15731,-2.71825],[111.15587,-2.72473],[111.14864,-2.73851],[111.13642,-2.74775],[111.12769,-2.75299],[111.11236,-2.75862],[111.1105,-2.76136],[111.09941,-2.76865],[111.08315,-2.7719],[111.07416,-2.77737],[111.05786,-2.78249],[111.04141,-2.78578],[111.03292,-2.78565],[111.01155,-2.79488],[111.00585,-2.80277],[110.9989,-2.8267],[110.99315,-2.8328],[110.97551,-2.84232],[110.9713,-2.85282],[110.96664,-2.85785],[110.9464,-2.86495],[110.93125,-2.86769],[110.91483,-2.86655],[110.88856,-2.87152],[110.87983,-2.88181],[110.83813,-2.89559],[110.82885,-2.90552],[110.79969,-2.90705],[110.79365,-2.90927],[110.75517,-2.94237],[110.74432,-2.96288],[110.73448,-2.98827],[110.72833,-2.99215],[110.72642,-3.00173],[110.70305,-3.01107],[110.67683,-3.02628],[110.6724,-3.03152],[110.66092,-3.03381],[110.6588,-3.03521],[110.65904,-3.03833],[110.6571,-3.03988],[110.65535,-3.03782],[110.65418,-3.0397],[110.6525,-3.03785],[110.6521,-3.03992],[110.64963,-3.03955],[110.62672,-3.02919],[110.62278,-3.02108],[110.62761,-3.01743],[110.62557,-3.01521],[110.62799,-3.01283],[110.61828,-3.00226],[110.61086,-2.99046],[110.61193,-2.9845],[110.63537,-2.9925],[110.64405,-2.98982],[110.63752,-2.98173],[110.63353,-2.92593],[110.62919,-2.90574],[110.62346,-2.88947],[110.61581,-2.87396],[110.60566,-2.86141],[110.59652,-2.85296],[110.58577,-2.84986],[110.58427,-2.84751],[110.56896,-2.83989],[110.55786,-2.83869],[110.5475,-2.84027],[110.5351,-2.84502],[110.53314,-2.85096],[110.50883,-2.85328],[110.49631,-2.8576],[110.47586,-2.86672],[110.47093,-2.87046],[110.41886,-2.89682],[110.39692,-2.91136],[110.3897,-2.91876],[110.37383,-2.92908],[110.35175,-2.94662],[110.31813,-2.978],[110.31502,-2.98326],[110.30668,-2.99093],[110.30598,-2.99641],[110.30061,-2.98987],[110.30181,-2.98721],[110.29777,-2.98195],[110.28071,-2.97002],[110.26331,-2.96393],[110.25852,-2.95873],[110.24772,-2.91819],[110.2241,-2.88724],[110.23736,-2.87308],[110.24826,-2.85645],[110.25257,-2.84838],[110.2585,-2.83071],[110.26282,-2.81492],[110.26498,-2.79865],[110.26385,-2.77912],[110.26075,-2.76701],[110.25615,-2.75876],[110.24676,-2.7547],[110.23522,-2.74633],[110.22701,-2.74376],[110.22424,-2.74027],[110.21806,-2.73982],[110.22736,-2.73053],[110.23132,-2.72335],[110.23174,-2.71713],[110.2281,-2.71281],[110.23347,-2.69739],[110.23066,-2.68967],[110.22205,-2.68314],[110.22117,-2.6754],[110.21836,-2.67394],[110.21916,-2.6717],[110.21697,-2.67046],[110.21892,-2.66312],[110.21415,-2.64818],[110.19975,-2.63851],[110.19011,-2.63453],[110.18004,-2.63438],[110.17094,-2.63095],[110.16504,-2.63188],[110.15921,-2.63499],[110.15779,-2.62896],[110.15064,-2.62591],[110.15204,-2.6232],[110.15111,-2.62162],[110.14866,-2.62185],[110.15085,-2.61741],[110.15334,-2.61854],[110.15387,-2.61654],[110.15729,-2.61803],[110.15294,-2.61407],[110.15719,-2.61467],[110.15562,-2.61212],[110.15902,-2.61161],[110.15938,-2.61013],[110.1573,-2.60861],[110.16191,-2.60905],[110.16343,-2.60528],[110.16264,-2.60188],[110.16617,-2.59995],[110.16746,-2.60248],[110.16919,-2.59969],[110.17038,-2.6025],[110.17432,-2.60273],[110.17395,-2.60023],[110.17609,-2.59838],[110.17269,-2.59796],[110.1767,-2.59607],[110.17619,-2.59339],[110.17814,-2.59363],[110.17906,-2.59087],[110.18357,-2.59031],[110.18581,-2.57933],[110.19003,-2.5712],[110.19077,-2.5472],[110.19739,-2.52434],[110.19714,-2.52091],[110.18967,-2.50209],[110.18696,-2.49894],[110.18439,-2.4986],[110.18563,-2.48915],[110.18158,-2.45741],[110.17992,-2.45423],[110.17675,-2.45316],[110.17477,-2.44992],[110.17351,-2.45042],[110.17245,-2.44702],[110.1645,-2.43821],[110.15982,-2.43481],[110.15513,-2.43501],[110.15282,-2.43088],[110.14717,-2.42788],[110.15118,-2.42459],[110.15035,-2.41938],[110.15326,-2.41215],[110.14875,-2.38326],[110.14869,-2.37247],[110.14353,-2.35331],[110.14546,-2.34989],[110.14572,-2.33151],[110.1401,-2.30858],[110.13197,-2.29212],[110.12543,-2.28352],[110.12293,-2.27638],[110.11396,-2.26258],[110.10427,-2.25182],[110.09481,-2.24475],[110.08748,-2.24153],[110.0849,-2.24415],[110.07888,-2.2437],[110.07691,-2.24788],[110.0722,-2.24673],[110.06435,-2.24852],[110.06183,-2.24582],[110.07116,-2.23714],[110.07166,-2.23886],[110.07743,-2.24234],[110.08192,-2.24043],[110.08737,-2.23444],[110.09137,-2.22489],[110.09428,-2.20771],[110.09386,-2.19988],[110.09085,-2.193],[110.08858,-2.19238],[110.08754,-2.19427],[110.08449,-2.19105],[110.0852,-2.17906],[110.08957,-2.17959],[110.10255,-2.16668],[110.1089,-2.15579],[110.11594,-2.12639],[110.11504,-2.11214],[110.11879,-2.0981],[110.11956,-2.07781],[110.11813,-2.0606],[110.11238,-2.04402],[110.11664,-2.03364],[110.12026,-2.02985],[110.11692,-2.02806],[110.11106,-2.02827],[110.10892,-2.02652],[110.10726,-2.01803],[110.1081,-2.01171],[110.1048,-2.0022],[110.10459,-1.99474],[110.10255,-1.99287],[110.10367,-1.99081],[110.09991,-1.98531],[110.09995,-1.98018],[110.08545,-1.95474],[110.07507,-1.9394],[110.06738,-1.93148],[110.04572,-1.91822],[110.01021,-1.90761],[109.99371,-1.89824],[109.97532,-1.88276],[109.96283,-1.87465],[109.94363,-1.86484],[109.9244,-1.8576],[109.91537,-1.84925],[109.90117,-1.8284],[109.90257,-1.82588],[109.90655,-1.82529],[109.90771,-1.82743],[109.91295,-1.82663],[109.92478,-1.83157],[109.9281,-1.8302],[109.92391,-1.81944],[109.90851,-1.8052],[109.91326,-1.77397],[109.91685,-1.77266],[109.92976,-1.77678],[109.94136,-1.7771],[109.94574,-1.77478],[109.93999,-1.76545],[109.94023,-1.76277],[109.95043,-1.76277],[109.95128,-1.76386],[109.95795,-1.76232],[109.96235,-1.75756],[109.97552,-1.74867],[109.9841,-1.73996],[110.00017,-1.71438],[110.01687,-1.70025],[110.02657,-1.68275],[110.03312,-1.66364],[110.04198,-1.58278],[110.04033,-1.55539],[110.03551,-1.53488],[110.03537,-1.52526],[110.04422,-1.49477],[110.05647,-1.47656],[110.06056,-1.46387],[110.06409,-1.46007],[110.0614,-1.44505],[110.05706,-1.43461],[110.06445,-1.42976],[110.07189,-1.42099],[110.07441,-1.40515],[110.07455,-1.38771],[110.06731,-1.36572],[110.06884,-1.36293],[110.06579,-1.36102],[110.05721,-1.33682],[110.03959,-1.3132],[110.03464,-1.30962],[110.03141,-1.31155],[110.03227,-1.30308],[110.02223,-1.29155],[110.01496,-1.28576],[109.99349,-1.27405],[109.98765,-1.27415],[109.98515,-1.27779],[109.97575,-1.27525],[109.97139,-1.27557],[109.9702,-1.27813],[109.96859,-1.27705],[109.96423,-1.27855],[109.96187,-1.27719],[109.96012,-1.27295],[109.96077,-1.26431],[109.95389,-1.26172],[109.9518,-1.26203],[109.95064,-1.26509],[109.94834,-1.26205],[109.95059,-1.26036],[109.95042,-1.2577],[109.94857,-1.25662],[109.94817,-1.25835],[109.94295,-1.25612],[109.93876,-1.2517],[109.94154,-1.24957],[109.94463,-1.25024],[109.94838,-1.24363],[109.94809,-1.23941],[109.94309,-1.23203],[109.93938,-1.23566],[109.93677,-1.23266],[109.93301,-1.23301],[109.9347,-1.22762],[109.93285,-1.22428],[109.9355,-1.22033],[109.93451,-1.21902],[109.92535,-1.21367],[109.92197,-1.21804],[109.91845,-1.21858],[109.9166,-1.22083],[109.91457,-1.21718],[109.91208,-1.21735],[109.91296,-1.21254],[109.91096,-1.20852],[109.90784,-1.20957],[109.90657,-1.20469],[109.90975,-1.20367],[109.91151,-1.20061],[109.91015,-1.19783],[109.91082,-1.19394],[109.91321,-1.19205],[109.91626,-1.19227],[109.91993,-1.18756],[109.92219,-1.1778],[109.9333,-1.15452],[109.94242,-1.13055],[109.9397,-1.12367],[109.86338,-1.09281],[109.84291,-1.08869],[109.8294,-1.08906],[109.82575,-1.09486],[109.81907,-1.09179],[109.81989,-1.08365],[109.81082,-1.06452],[109.80378,-1.05377],[109.80361,-1.04941],[109.79532,-1.04353],[109.78626,-1.04197],[109.77536,-1.04433],[109.76788,-1.03357],[109.76891,-1.00306],[109.76305,-0.99411],[109.75383,-0.9893],[109.74695,-0.99005],[109.74259,-0.99317],[109.73266,-0.98839],[109.73374,-0.95311],[109.73151,-0.93622],[109.72691,-0.9228],[109.73369,-0.91544],[109.74701,-0.91406],[109.75752,-0.90487],[109.75869,-0.89913],[109.75776,-0.89588],[109.75,-0.89426],[109.73889,-0.88375],[109.7399,-0.88115],[109.74655,-0.87908],[109.75045,-0.87523],[109.75011,-0.86795],[109.74525,-0.86173],[109.73899,-0.85964],[109.73172,-0.86235],[109.72638,-0.87088],[109.71882,-0.86958],[109.71592,-0.86416],[109.72051,-0.85511],[109.72094,-0.84909],[109.71377,-0.82978],[109.69287,-0.82427],[109.68751,-0.82557],[109.68278,-0.82967],[109.67947,-0.82967],[109.66822,-0.8206],[109.66562,-0.81143],[109.66202,-0.80671],[109.6353,-0.79659],[109.63783,-0.78686],[109.63387,-0.78091],[109.63169,-0.75187],[109.65759,-0.75039],[109.66955,-0.75446],[109.6712,-0.75239],[109.67132,-0.74611],[109.67622,-0.74603],[109.67652,-0.74488],[109.67217,-0.73946],[109.67699,-0.73745],[109.685,-0.72781],[109.68928,-0.72522],[109.69185,-0.72734],[109.69621,-0.72017],[109.6968,-0.71609],[109.6881,-0.71424],[109.68882,-0.71206],[109.6878,-0.70905],[109.68891,-0.70571],[109.68562,-0.70573],[109.67912,-0.70135],[109.66744,-0.70037],[109.67424,-0.69794],[109.67537,-0.69488],[109.67219,-0.69055],[109.66984,-0.68995],[109.66721,-0.68264],[109.65852,-0.6774],[109.65752,-0.67122],[109.65251,-0.67346],[109.64715,-0.68338],[109.63998,-0.68413],[109.63232,-0.68888],[109.61802,-0.68965],[109.61762,-0.68478],[109.61249,-0.68313],[109.60731,-0.68509],[109.60088,-0.69146],[109.59597,-0.69361],[109.58773,-0.68949],[109.58722,-0.6827],[109.58344,-0.67784],[109.58746,-0.66292],[109.58615,-0.65272],[109.58446,-0.6507],[109.57747,-0.65264],[109.573,-0.64997],[109.56897,-0.65359],[109.56638,-0.65049],[109.56232,-0.6503],[109.55731,-0.65405],[109.55306,-0.64991],[109.54653,-0.65195],[109.54525,-0.64688],[109.54288,-0.64457],[109.5293,-0.64409],[109.52858,-0.63918],[109.52654,-0.63731],[109.5217,-0.6385],[109.51695,-0.64243],[109.51187,-0.6358],[109.50319,-0.63606],[109.49496,-0.62441],[109.49137,-0.62365],[109.48551,-0.62583],[109.48125,-0.62536],[109.47693,-0.62047],[109.47678,-0.61663],[109.47542,-0.61609],[109.4612,-0.6256],[109.45318,-0.62245],[109.44551,-0.6262],[109.41468,-0.63108],[109.40227,-0.62323],[109.39808,-0.61677],[109.38969,-0.61002],[109.38238,-0.5973],[109.38133,-0.59028],[109.37415,-0.58462],[109.35808,-0.5834],[109.3512,-0.58463],[109.34143,-0.58963],[109.32813,-0.58835],[109.3249,-0.58554],[109.32506,-0.584],[109.3326,-0.57833],[109.33438,-0.57664],[109.33499,-0.57495],[109.33434,-0.5728],[109.33077,-0.57234],[109.32397,-0.57389],[109.32264,-0.58421],[109.3239,-0.58805],[109.31514,-0.59418],[109.29433,-0.59187],[109.28528,-0.59738],[109.26911,-0.59898],[109.26314,-0.601],[109.25906,-0.59927],[109.25172,-0.58858],[109.2522,-0.59236],[109.25,-0.59396],[109.25331,-0.5928],[109.25835,-0.5994],[109.25642,-0.60357],[109.25143,-0.60501],[109.24794,-0.60329],[109.24385,-0.59601],[109.23975,-0.59649],[109.22699,-0.5893],[109.22455,-0.58321],[109.22739,-0.57177],[109.22275,-0.57074],[109.22175,-0.5672],[109.21761,-0.56531],[109.21636,-0.56096],[109.20375,-0.55455],[109.20182,-0.5514],[109.19537,-0.55348],[109.18716,-0.5525],[109.18619,-0.55443],[109.19223,-0.56009],[109.19306,-0.56354],[109.19154,-0.56565],[109.18587,-0.56863],[109.1682,-0.57254],[109.1571,-0.57146],[109.14768,-0.56781],[109.13416,-0.551],[109.12013,-0.52464],[109.11434,-0.50425],[109.11253,-0.48713],[109.11264,-0.46666],[109.11663,-0.43677],[109.10868,-0.4015],[109.09809,-0.36556],[109.09852,-0.35211],[109.10088,-0.3467],[109.10361,-0.34484],[109.10984,-0.35279],[109.11881,-0.3591],[109.126,-0.36181],[109.14204,-0.36276],[109.1615,-0.37196],[109.16513,-0.36967],[109.15881,-0.36824],[109.15007,-0.35781],[109.11391,-0.34306],[109.11495,-0.33837],[109.11347,-0.32984],[109.11105,-0.32412],[109.10665,-0.31905],[109.10457,-0.30637],[109.08864,-0.28897],[109.08723,-0.28562],[109.08727,-0.27785],[109.08908,-0.27422],[109.10297,-0.26766],[109.10649,-0.26766],[109.11959,-0.25967],[109.12612,-0.25275],[109.13113,-0.24272],[109.12379,-0.25302],[109.13325,-0.23812],[109.14516,-0.23477],[109.15309,-0.23444],[109.16187,-0.23043],[109.17216,-0.23176],[109.17712,-0.2256],[109.19847,-0.22064],[109.2106,-0.2272],[109.21949,-0.2431],[109.22652,-0.24949],[109.25211,-0.26529],[109.26588,-0.26892],[109.279,-0.27997],[109.28898,-0.28256],[109.28935,-0.27871],[109.28098,-0.27719],[109.26756,-0.26616],[109.25426,-0.26278],[109.22928,-0.24493],[109.22424,-0.24049],[109.21362,-0.22286],[109.19054,-0.20794],[109.18509,-0.2027],[109.18204,-0.19713],[109.18152,-0.1899],[109.18413,-0.1775],[109.18365,-0.16222],[109.18961,-0.13642],[109.18865,-0.12808],[109.18312,-0.1152],[109.18175,-0.10202],[109.18239,-0.09623],[109.18808,-0.09125],[109.18367,-0.08441],[109.17868,-0.08058],[109.17559,-0.07092],[109.17691,-0.06379],[109.16881,-0.05354],[109.16013,-0.04613],[109.15893,-0.03937],[109.16749,0.00698],[109.16975,0.03229],[109.17094,0.03408],[109.18116,0.03331],[109.2208,0.01751],[109.24093,0.01626],[109.26411,0.01046],[109.29505,-0.00138],[109.30603,-0.00088],[109.31499,-0.003],[109.34275,-0.0233],[109.35064,-0.03771],[109.36629,-0.05571],[109.36796,-0.0586],[109.36589,-0.06052],[109.37091,-0.06189],[109.37952,-0.06989],[109.3725,-0.06219],[109.36496,-0.05021],[109.352,-0.03614],[109.34547,-0.02368],[109.36298,-0.02091],[109.36812,-0.02124],[109.38313,-0.02642],[109.38384,-0.02391],[109.36762,-0.01848],[109.3443,-0.02088],[109.32136,-0.00022],[109.30959,0.0038],[109.30042,0.00498],[109.29629,0.00773],[109.28926,0.0086],[109.24761,0.02664],[109.22948,0.03696],[109.17665,0.07349],[109.16784,0.08632],[109.16111,0.10378],[109.15748,0.10817],[109.14281,0.11924],[109.13879,0.12564],[109.13253,0.14298],[109.13185,0.1584],[109.13451,0.16344],[109.13158,0.16864],[109.12853,0.18929],[109.11868,0.21063],[109.10947,0.22601],[109.09351,0.24415],[109.0866,0.25095],[109.06685,0.26514],[109.06374,0.26584],[109.04783,0.279],[109.01826,0.29626],[108.99903,0.30482],[108.96695,0.31475],[108.96456,0.31532],[108.95636,0.31248],[108.94038,0.31765],[108.93778,0.32033],[108.93284,0.31954],[108.92228,0.32456],[108.91839,0.32803],[108.91331,0.33974],[108.91431,0.34876],[108.91859,0.34781],[108.92809,0.3543],[108.93991,0.37137],[108.94417,0.38296],[108.94613,0.40475],[108.94543,0.43027],[108.94357,0.43916],[108.93891,0.44928],[108.9322,0.45879],[108.92541,0.46513],[108.91619,0.47131],[108.91458,0.47083],[108.9162,0.46886],[108.91406,0.47],[108.91052,0.47526],[108.90838,0.48296],[108.90911,0.49922],[108.90727,0.50529],[108.92676,0.56209],[108.92622,0.56721],[108.92915,0.57799],[108.9304,0.59918],[108.92776,0.62109],[108.92846,0.6259],[108.92276,0.64262],[108.92328,0.64519],[108.91576,0.66445],[108.90175,0.68704],[108.89869,0.68923],[108.89684,0.69359],[108.88577,0.70274],[108.87551,0.70839],[108.87284,0.70787],[108.87389,0.70972],[108.87218,0.71225],[108.87309,0.72281],[108.87627,0.724],[108.87896,0.72801],[108.8845,0.74504],[108.88449,0.75521],[108.88008,0.77138],[108.87309,0.78131],[108.86127,0.79192],[108.85168,0.786],[108.85033,0.79146],[108.84619,0.79457],[108.84691,0.80429],[108.84313,0.80758],[108.8436,0.80982],[108.84063,0.8151],[108.84782,0.82224],[108.84858,0.82478],[108.85269,0.82573],[108.86493,0.83554],[108.86586,0.8382],[108.86766,0.8363],[108.87018,0.83726],[108.89056,0.85694],[108.89208,0.8607],[108.89085,0.86561],[108.89236,0.8663],[108.89338,0.87073],[108.89669,0.8692],[108.89819,0.86611],[108.9067,0.86537],[108.91119,0.86246],[108.92409,0.87188],[108.94308,0.89186],[108.95367,0.90643],[108.97148,0.94497],[108.97662,0.96482],[108.97904,0.99237],[108.97574,1.0201],[108.97161,1.03237],[108.97017,1.03507],[108.96886,1.03492],[108.96812,1.04132],[108.95714,1.06202],[108.95007,1.06722],[108.94447,1.0841],[108.93876,1.09425],[108.93164,1.09742],[108.93125,1.10017],[108.93279,1.10194],[108.93159,1.10572],[108.92626,1.1164],[108.92344,1.1189],[108.91604,1.13714],[108.9031,1.16247],[108.90436,1.17134],[108.90668,1.17386],[108.92722,1.17565],[108.94791,1.16469],[108.95609,1.16597],[108.96485,1.16955],[108.97112,1.17646],[108.96826,1.17988],[108.95961,1.20554],[108.96139,1.20761],[108.96373,1.21777],[108.97287,1.22984],[108.97664,1.23868],[108.98439,1.25],[108.98981,1.26623],[108.98962,1.26943],[108.98724,1.27135],[108.98987,1.27361],[108.98964,1.27583],[108.9927,1.27721],[109.01032,1.29546],[109.02511,1.31406],[109.03577,1.32994],[109.04133,1.34511],[109.0431,1.35435],[109.04273,1.37366],[109.0438,1.3751],[109.04233,1.37688],[109.04023,1.40164],[109.03796,1.40524],[109.03847,1.41224],[109.03697,1.41525],[109.03824,1.4266],[109.03626,1.43104],[109.03722,1.46239],[109.043,1.48973],[109.05083,1.51079],[109.05653,1.52118],[109.09504,1.55926],[109.12885,1.58659],[109.15428,1.60047],[109.19909,1.62039],[109.23171,1.64069],[109.25128,1.65902],[109.26249,1.67675],[109.26641,1.68996],[109.27026,1.71509],[109.28181,1.72161],[109.28642,1.73212],[109.28519,1.73964],[109.28852,1.74487],[109.28898,1.75201],[109.29198,1.75696],[109.29648,1.75978],[109.30051,1.76796],[109.28788,1.77299],[109.2877,1.77689],[109.32667,1.81823],[109.33733,1.83332],[109.33875,1.84432],[109.3375,1.85488],[109.34001,1.86236],[109.33892,1.86371],[109.3379,1.8579],[109.33455,1.85742],[109.34282,1.87098],[109.34344,1.87583],[109.32335,1.92065],[109.32232,1.92703],[109.33277,1.93376],[109.33757,1.9433],[109.34879,1.94544],[109.39411,1.9459],[109.43176,1.95132],[109.43527,1.95297],[109.45124,1.96861],[109.45233,1.9742],[109.45699,1.97686],[109.47609,1.98229],[109.53583,1.98963],[109.5686,1.98811],[109.5849,1.99005],[109.59026,1.99333],[109.59415,2.00157],[109.59765,2.00469],[109.59673,2.00845],[109.60222,2.01816],[109.60361,2.02542],[109.61362,2.03927],[109.62075,2.05386],[109.62451,2.05701],[109.62547,2.06498],[109.63191,2.06964],[109.63479,2.07515],[109.64457,2.0813],[109.64408,2.07445],[109.64062,2.07111],[109.63911,2.06464],[109.63025,2.04595],[109.63019,2.03652]]]]}}]}